{"type": "FeatureCollection", "features": [{"type": "Feature", "properties": {"layer": "campus", "name": "Northwest Mississippi Community College"}, "geometry": {"type": "Polygon", "coordinates": [[[-89.980023, 34.619471], [-89.9686158, 34.619471], [-89.9686156, 34.6195293], [-89.9686099, 34.6201377], [-89.968613, 34.6214179], [-89.9686148, 34.6221589], [-89.9686148, 34.6229116], [-89.9686148, 34.6230599], [-89.9686147, 34.6239903], [-89.9686147, 34.6246406], [-89.9686118, 34.625103], [-89.9686076, 34.6252979], [-89.9686069, 34.6253684], [-89.9686306, 34.6266639], [-89.968628, 34.6272092], [-89.9686271, 34.6274108], [-89.9686255, 34.6277464], [-89.9692783, 34.6277619], [-89.9693887, 34.6277645], [-89.969611, 34.6277698], [-89.9696518, 34.6277708], [-89.9698253, 34.6277749], [-89.9700528, 34.6277803], [-89.9703708, 34.6277878], [-89.9708228, 34.6277985], [-89.9712011, 34.6278075], [-89.9719786, 34.6278259], [-89.9726015, 34.6278402], [-89.9729585, 34.6278401], [-89.9731257, 34.62784], [-89.9735038, 34.6278399], [-89.9739872, 34.6278523], [-89.9746381, 34.627869], [-89.9767121, 34.6279222], [-89.9787689, 34.6279593], [-89.980023, 34.6279896], [-89.980023, 34.619471]]]}}, {"type": "Feature", "properties": {"layer": "road", "cls": "minor", "name": "Thompson Street", "osm_id": 13966737, "w": 7.5}, "geometry": {"type": "LineString", "coordinates": [[-89.9777704, 34.6221316], [-89.9774796, 34.6221284], [-89.9769734, 34.6221227], [-89.9765767, 34.6221182], [-89.9764264, 34.6221165], [-89.9754652, 34.6221058], [-89.9735643, 34.6220908], [-89.9718482, 34.6220799], [-89.970714, 34.6220853], [-89.9705641, 34.6220856]]}}, {"type": "Feature", "properties": {"layer": "road", "cls": "minor", "name": "Thompson Street", "osm_id": 13966737, "w": 7.5}, "geometry": {"type": "LineString", "coordinates": [[-89.9702535, 34.6221105], [-89.9699797, 34.6221567], [-89.968558, 34.6221589]]}}, {"type": "Feature", "properties": {"layer": "road", "cls": "minor", "name": "Circle Drive", "osm_id": 13966849, "w": 6}, "geometry": {"type": "LineString", "coordinates": [[-89.9693314, 34.6257608], [-89.9696543, 34.6257682], [-89.9697637, 34.6257807], [-89.9698322, 34.6257982], [-89.9698886, 34.6258191], [-89.9699394, 34.6258507], [-89.9699674, 34.6258901], [-89.9701429, 34.6261956], [-89.970173, 34.6262494], [-89.970191, 34.6263053], [-89.9701956, 34.6263611], [-89.9701866, 34.6266683]]}}, {"type": "Feature", "properties": {"layer": "road", "cls": "minor", "name": "Circle Drive", "osm_id": 13966850, "w": 6}, "geometry": {"type": "LineString", "coordinates": [[-89.9687549, 34.6246278], [-89.9687901, 34.6247177], [-89.9690331, 34.6249669], [-89.9692126, 34.6251697], [-89.969317, 34.6252983], [-89.9693705, 34.6253823], [-89.9693891, 34.6254575], [-89.9693927, 34.6255388], [-89.9693774, 34.6256289], [-89.9693314, 34.6257608], [-89.969275, 34.6258399], [-89.9691998, 34.6259211], [-89.9690708, 34.6260196], [-89.9690044, 34.62605], [-89.9689478, 34.626056], [-89.9688952, 34.6260499], [-89.9688345, 34.6260147], [-89.9688013, 34.625972], [-89.9687829, 34.6259371], [-89.9687678, 34.6258883], [-89.9687586, 34.6258372], [-89.9687558, 34.6258026], [-89.9687716, 34.6254702], [-89.9687396, 34.6253655], [-89.9687013, 34.625337], [-89.9686576, 34.6253173], [-89.9685508, 34.6252979]]}}, {"type": "Feature", "properties": {"layer": "road", "cls": "minor", "name": "Ranger Drive", "osm_id": 13966934, "w": 7}, "geometry": {"type": "LineString", "coordinates": [[-89.9718482, 34.6220799], [-89.9718471, 34.6231163], [-89.971869, 34.6239158], [-89.9718733, 34.6239321], [-89.9719017, 34.6246854], [-89.9719105, 34.6247903], [-89.9719124, 34.6248906], [-89.971953, 34.6249737], [-89.9720152, 34.6250551], [-89.9721331, 34.6252096], [-89.9721548, 34.625281], [-89.9721482, 34.6253547], [-89.9720879, 34.6254501], [-89.9719983, 34.6255922], [-89.9719511, 34.6257264], [-89.9719473, 34.6258878], [-89.9719587, 34.6260586], [-89.9719746, 34.6263129], [-89.9719793, 34.6266328]]}}, {"type": "Feature", "properties": {"layer": "road", "cls": "minor", "name": "West Porter Street", "osm_id": 13967161, "w": 6.5}, "geometry": {"type": "LineString", "coordinates": [[-89.9703512, 34.6245008], [-89.9702819, 34.6245469], [-89.9701418, 34.6245721], [-89.9687549, 34.6246278], [-89.9685579, 34.6246406]]}}, {"type": "Feature", "properties": {"layer": "road", "cls": "minor", "name": "Northwest Drive", "osm_id": 13967387, "w": 8.5}, "geometry": {"type": "LineString", "coordinates": [[-89.9776142, 34.6263172], [-89.9775586, 34.626366], [-89.9774765, 34.6263878], [-89.9773528, 34.6263931], [-89.9768698, 34.6264138], [-89.9767223, 34.6264201], [-89.976144, 34.6264449], [-89.9759913, 34.6264515], [-89.9756586, 34.6264658], [-89.9746892, 34.6265073], [-89.9744332, 34.6265183], [-89.9739851, 34.6265375], [-89.9737696, 34.6265467], [-89.9736062, 34.6265537], [-89.9732139, 34.6265878], [-89.9729328, 34.6266064], [-89.9725424, 34.6266249], [-89.972089, 34.6266313], [-89.9719793, 34.6266328], [-89.97182, 34.626636], [-89.971439, 34.6266435], [-89.9710303, 34.6266494], [-89.970773, 34.6266539], [-89.9701866, 34.6266683], [-89.9701608, 34.6266682], [-89.9693045, 34.6266659], [-89.9689223, 34.6266649], [-89.9685738, 34.6266639]]}}, {"type": "Feature", "properties": {"layer": "road", "cls": "minor", "name": "Collegiate Drive", "osm_id": 13967453, "w": 6.5}, "geometry": {"type": "LineString", "coordinates": [[-89.9736005, 34.6260671], [-89.9734091, 34.6260741], [-89.9732251, 34.6260721], [-89.9719587, 34.6260586], [-89.9715645, 34.626071]]}}, {"type": "Feature", "properties": {"layer": "connector", "cls": "wilson", "name": "Wilson Drive", "osm_id": 13967671, "w": 10}, "geometry": {"type": "LineString", "coordinates": [[-89.980023, 34.6280321], [-89.9787689, 34.6280018], [-89.9767121, 34.6279647], [-89.9746381, 34.6279115], [-89.9739872, 34.6278948], [-89.9735038, 34.6278824], [-89.9731257, 34.6278825], [-89.9729585, 34.6278826], [-89.9726015, 34.6278827], [-89.9719786, 34.6278684], [-89.9712011, 34.62785], [-89.9708228, 34.627841], [-89.9703708, 34.6278303], [-89.9700528, 34.6278228], [-89.9698253, 34.6278174], [-89.9696518, 34.6278133], [-89.969611, 34.6278123], [-89.9693887, 34.627807], [-89.9692783, 34.6278044], [-89.9685685, 34.6277876]]}}, {"type": "Feature", "properties": {"layer": "connector", "cls": "hwy51", "name": "HWY 51", "osm_id": 13967159, "w": 11}, "geometry": {"type": "LineString", "coordinates": [[-89.968559, 34.619471], [-89.9685588, 34.6195293], [-89.9685531, 34.6201377], [-89.9685562, 34.6214179], [-89.968558, 34.6221589], [-89.968558, 34.6229116], [-89.968558, 34.6230599], [-89.9685579, 34.6239903], [-89.9685579, 34.6246406], [-89.968555, 34.625103], [-89.9685508, 34.6252979], [-89.9685501, 34.6253684], [-89.9685738, 34.6266639], [-89.9685712, 34.6272092], [-89.9685703, 34.6274108], [-89.9685685, 34.6277876], [-89.9685685, 34.6278328]]}}, {"type": "Feature", "properties": {"layer": "road", "cls": "minor", "name": "Alumni Drive", "osm_id": 13968078, "w": 7}, "geometry": {"type": "LineString", "coordinates": [[-89.9735643, 34.6220908], [-89.973565, 34.6221758], [-89.9735684, 34.6230029], [-89.9735694, 34.6232295], [-89.9735762, 34.6236106], [-89.9735815, 34.6239071], [-89.9735837, 34.6243681], [-89.9735875, 34.625189], [-89.973588, 34.6253692], [-89.9735912, 34.6254356], [-89.9736005, 34.6260671], [-89.973605, 34.6264537], [-89.9736062, 34.6265537], [-89.9735886, 34.6268978], [-89.9735812, 34.6270428], [-89.9735586, 34.6272952]]}}, {"type": "Feature", "properties": {"layer": "road", "cls": "minor", "name": "Alumni Drive", "osm_id": 13968078, "w": 12, "trace_id": "alumni-entrance"}, "geometry": {"type": "LineString", "coordinates": [[-89.9735586, 34.6272952], [-89.9735303, 34.6276108], [-89.9735038, 34.6278824]]}}, {"type": "Feature", "properties": {"layer": "road", "cls": "minor", "name": "Holder Drive", "osm_id": 13968187, "w": 6.5}, "geometry": {"type": "LineString", "coordinates": [[-89.9779908, 34.619471], [-89.9778774, 34.6199349], [-89.9778482, 34.6201507], [-89.9778264, 34.6212413], [-89.9777917, 34.62175], [-89.9777704, 34.6221316], [-89.977741, 34.6228061], [-89.9777309, 34.6251174], [-89.9776944, 34.626148], [-89.9776604, 34.6262496], [-89.9776142, 34.6263172]]}}, {"type": "Feature", "properties": {"layer": "road", "cls": "minor", "name": "West Street", "osm_id": 193565309, "w": 7}, "geometry": {"type": "LineString", "coordinates": [[-89.9703478, 34.6212688], [-89.9703864, 34.6218644], [-89.9703921, 34.6219657]]}}, {"type": "Feature", "properties": {"layer": "road", "cls": "minor", "name": "West Street", "osm_id": 193565309, "w": 7}, "geometry": {"type": "LineString", "coordinates": [[-89.9704415, 34.6222208], [-89.9704684, 34.622306], [-89.9704728, 34.6227844], [-89.9704771, 34.6232013], [-89.9704826, 34.6238317], [-89.9704837, 34.6239438], [-89.9704826, 34.6239547], [-89.9704717, 34.6243517], [-89.9704099, 34.6244448], [-89.9703512, 34.6245008]]}}, {"type": "Feature", "properties": {"layer": "road", "cls": "aisle", "name": "", "osm_id": 350933466, "w": 7}, "geometry": {"type": "LineString", "coordinates": [[-89.9706387, 34.6246212], [-89.9706878, 34.6244991], [-89.9707107, 34.6243743], [-89.9707118, 34.6239501]]}}, {"type": "Feature", "properties": {"layer": "pitch", "sport": "baseball", "osm_id": 479548897}, "geometry": {"type": "Polygon", "coordinates": [[[-89.9754867, 34.6240439], [-89.9755871, 34.6241507], [-89.9758415, 34.6241511], [-89.9758574, 34.624662], [-89.9758525, 34.6248027], [-89.9758139, 34.6249079], [-89.9757549, 34.6249733], [-89.9756147, 34.6250463], [-89.9754363, 34.6250735], [-89.9747366, 34.625094], [-89.9747055, 34.6248335], [-89.9746142, 34.6247962], [-89.9745982, 34.6242629], [-89.9745959, 34.624181], [-89.9746381, 34.6241127], [-89.9746932, 34.6240811], [-89.9747608, 34.6240607], [-89.9754867, 34.6240439]]]}}, {"type": "Feature", "properties": {"layer": "pitch", "sport": "softball", "osm_id": 479548907}, "geometry": {"type": "Polygon", "coordinates": [[[-89.9783345, 34.6213194], [-89.9790023, 34.6213437], [-89.9789956, 34.6214552], [-89.9789929, 34.6216527], [-89.9789822, 34.6216825], [-89.9788937, 34.6217929], [-89.9787918, 34.6218757], [-89.9786121, 34.6219662], [-89.9782178, 34.6219496], [-89.9782526, 34.6213857], [-89.9783345, 34.6213194]]]}}, {"type": "Feature", "properties": {"layer": "path", "cls": "path", "name": "Northwest Jogging, Walking, Running Path", "osm_id": 485130351, "w": 2}, "geometry": {"type": "LineString", "coordinates": [[-89.9788122, 34.6200006], [-89.9787773, 34.6199873], [-89.9786792, 34.619962], [-89.978566, 34.619936], [-89.9783891, 34.6199308], [-89.9782173, 34.6199718], [-89.9780321, 34.6200775], [-89.9779802, 34.6211528], [-89.9779764, 34.6212463], [-89.9779631, 34.6215236], [-89.9779366, 34.6217554], [-89.9779199, 34.6220693], [-89.9780857, 34.6220783], [-89.9781813, 34.6220662], [-89.9785365, 34.6221064], [-89.9787149, 34.6221086], [-89.9788985, 34.6220809], [-89.9791105, 34.621984], [-89.9792071, 34.6218234], [-89.979277, 34.6216215], [-89.9792214, 34.6212605], [-89.9791401, 34.6210721], [-89.979133, 34.6210189], [-89.9791946, 34.6209999], [-89.9792989, 34.6209809], [-89.9793222, 34.6202792], [-89.978882, 34.6200844], [-89.9788122, 34.6200006]]}}, {"type": "Feature", "properties": {"layer": "road", "cls": "service", "name": "", "osm_id": 486893534, "w": 6}, "geometry": {"type": "LineString", "coordinates": [[-89.9777917, 34.62175], [-89.9779366, 34.6217554], [-89.9780676, 34.6217587]]}}, {"type": "Feature", "properties": {"layer": "road", "cls": "service", "name": "", "osm_id": 486893535, "w": 6}, "geometry": {"type": "LineString", "coordinates": [[-89.9778264, 34.6212413], [-89.9779764, 34.6212463], [-89.9780488, 34.6212532], [-89.978089, 34.6212698], [-89.9780984, 34.6213018], [-89.9780676, 34.6217587], [-89.9780622, 34.6219187]]}}, {"type": "Feature", "properties": {"layer": "path", "cls": "path", "name": "Northwest Jogging, Walking, Running Path", "osm_id": 486893536, "w": 2}, "geometry": {"type": "MultiLineString", "coordinates": [[[-89.9789517, 34.6199123], [-89.9790375, 34.6199741], [-89.9791877, 34.6200491], [-89.9793487, 34.6200712], [-89.9795257, 34.619952], [-89.979531, 34.6198151], [-89.9794506, 34.619718], [-89.979354, 34.6196518], [-89.9792467, 34.6196871], [-89.9790528, 34.6197945], [-89.9789517, 34.6199123]], [[-89.9789517, 34.6199123], [-89.9788122, 34.6200006]]]}}, {"type": "Feature", "properties": {"layer": "pitch", "sport": "basketball", "osm_id": 486893541}, "geometry": {"type": "Polygon", "coordinates": [[[-89.9747816, 34.6238161], [-89.9745631, 34.6238144], [-89.9745636, 34.6237728], [-89.9745663, 34.6235263], [-89.9747848, 34.623528], [-89.9747816, 34.6238161]]]}}, {"type": "Feature", "properties": {"layer": "pitch", "sport": "basketball", "osm_id": 486893542}, "geometry": {"type": "Polygon", "coordinates": [[[-89.9749989, 34.6238177], [-89.9747816, 34.6238161], [-89.9747848, 34.623528], [-89.9750021, 34.6235296], [-89.9749989, 34.6238177]]]}}, {"type": "Feature", "properties": {"layer": "pitch", "sport": "basketball", "osm_id": 486893543}, "geometry": {"type": "Polygon", "coordinates": [[[-89.9752174, 34.6238194], [-89.9749989, 34.6238177], [-89.9750021, 34.6235296], [-89.9752207, 34.6235313], [-89.9752174, 34.6238194]]]}}, {"type": "Feature", "properties": {"layer": "pitch", "sport": "basketball", "osm_id": 486893544}, "geometry": {"type": "Polygon", "coordinates": [[[-89.9752174, 34.6238194], [-89.9752207, 34.6235313], [-89.975432, 34.6235329], [-89.9754288, 34.623821], [-89.9752174, 34.6238194]]]}}, {"type": "Feature", "properties": {"layer": "road", "cls": "minor", "name": "Transportation Drive", "osm_id": 578179346, "w": 6}, "geometry": {"type": "LineString", "coordinates": [[-89.9776944, 34.626148], [-89.9782601, 34.6261735], [-89.9786267, 34.626198], [-89.9787839, 34.6262085], [-89.9789326, 34.6261852], [-89.9789538, 34.6261269], [-89.9789963, 34.6260279], [-89.9790317, 34.6258299], [-89.97906, 34.6252299], [-89.97906, 34.6246766], [-89.9790671, 34.624263], [-89.9792582, 34.6241116], [-89.9793644, 34.6240999]]}}, {"type": "Feature", "properties": {"layer": "path", "cls": "path", "name": "", "osm_id": 578179348, "w": 2}, "geometry": {"type": "LineString", "coordinates": [[-89.9745919, 34.6252645], [-89.9736999, 34.6252606], [-89.973707, 34.625364], [-89.9737139, 34.6254451], [-89.9737093, 34.6255143], [-89.973756, 34.625595], [-89.9737279, 34.6264481], [-89.9737682, 34.6264467], [-89.9744117, 34.6264243], [-89.9745342, 34.62642], [-89.9756532, 34.6263811], [-89.9761363, 34.6263643], [-89.9768673, 34.6263388], [-89.9772581, 34.6263252]]}}, {"type": "Feature", "properties": {"layer": "path", "cls": "path", "name": "", "osm_id": 578179350, "w": 2}, "geometry": {"type": "LineString", "coordinates": [[-89.9736619, 34.6235641], [-89.9739564, 34.6235545], [-89.9739813, 34.6235359], [-89.9740078, 34.6235161], [-89.9740451, 34.6234546], [-89.9741385, 34.6234008], [-89.9742553, 34.6233585], [-89.974344, 34.6233393], [-89.9745214, 34.6233278], [-89.9745243, 34.6230961], [-89.9745252, 34.6230235], [-89.9745261, 34.6229572], [-89.974526, 34.6228946], [-89.9745259, 34.6226758], [-89.9745258, 34.6225589], [-89.9753387, 34.6225553], [-89.9753387, 34.6221903], [-89.9744794, 34.6222018]]}}, {"type": "Feature", "properties": {"layer": "path", "cls": "path", "name": "", "osm_id": 578179351, "w": 2}, "geometry": {"type": "LineString", "coordinates": [[-89.9739813, 34.6235359], [-89.9740465, 34.6235376], [-89.9741012, 34.6235391], [-89.9741852, 34.6234661], [-89.9745121, 34.6234623], [-89.9753808, 34.6234623], [-89.9754228, 34.6234354], [-89.9753901, 34.623397], [-89.9753669, 34.6233699], [-89.9753341, 34.6233316], [-89.9753364, 34.6229496], [-89.9753387, 34.6225553]]}}, {"type": "Feature", "properties": {"layer": "road", "cls": "aisle", "name": "", "osm_id": 622364113, "w": 7}, "geometry": {"type": "LineString", "coordinates": [[-89.9735815, 34.6239071], [-89.9727029, 34.6239594]]}}, {"type": "Feature", "properties": {"layer": "road", "cls": "minor", "name": "Union Boulevard", "osm_id": 622364114, "osm_ids": [622364114, 13968076], "w": 7}, "geometry": {"type": "LineString", "coordinates": [[-89.9718733, 34.6239321], [-89.9706703, 34.6239501], [-89.9704826, 34.6239547], [-89.9703554, 34.6239594], [-89.9694074, 34.6239712]]}}, {"type": "Feature", "properties": {"layer": "path", "cls": "path", "name": "", "osm_id": 646092849, "w": 2}, "geometry": {"type": "LineString", "coordinates": [[-89.9760071, 34.62526], [-89.9758612, 34.6252605], [-89.9745919, 34.6252645], [-89.9745582, 34.624183]]}}, {"type": "Feature", "properties": {"layer": "road", "cls": "service", "name": "", "osm_id": 738153513, "w": 6}, "geometry": {"type": "LineString", "coordinates": [[-89.9786267, 34.626198], [-89.9786369, 34.6260768], [-89.9786529, 34.6258872], [-89.9786572, 34.6257618], [-89.978634, 34.6257307], [-89.978287, 34.6257068]]}}, {"type": "Feature", "properties": {"layer": "road", "cls": "service", "name": "South Union Lane", "osm_id": 738512105, "osm_ids": [738512105, 738512106], "part": "lane (105 first+last segments + 106)", "w": 5}, "geometry": {"type": "LineString", "coordinates": [[-89.9735686, 34.623053], [-89.9732172, 34.6230756], [-89.9727139, 34.6230847], [-89.9723591, 34.6231027], [-89.9721004, 34.6231254], [-89.9718476, 34.6231346]]}}, {"type": "Feature", "properties": {"layer": "road", "cls": "service", "name": "", "osm_id": 738512105, "part": "lot-loop", "w": 6}, "geometry": {"type": "LineString", "coordinates": [[-89.973226, 34.623075], [-89.9732125, 34.62292], [-89.9732847, 34.6228714], [-89.9733153, 34.6228192], [-89.9733306, 34.6227562], [-89.9733131, 34.6225942], [-89.9732913, 34.6225617], [-89.9732278, 34.6225365], [-89.9724839, 34.6225347], [-89.9724489, 34.6225419], [-89.9724008, 34.6225635], [-89.9723745, 34.6225996], [-89.9723526, 34.622641], [-89.9723583, 34.6229254], [-89.9723629, 34.6231025]]}}, {"type": "Feature", "properties": {"layer": "road", "cls": "service", "name": "", "osm_id": 738512107, "w": 6}, "geometry": {"type": "LineString", "coordinates": [[-89.9732125, 34.62292], [-89.9731512, 34.6229056], [-89.9723583, 34.6229254]]}}, {"type": "Feature", "properties": {"layer": "road", "cls": "service", "name": "", "osm_id": 750384967, "w": 6}, "geometry": {"type": "LineString", "coordinates": [[-89.97182, 34.626636], [-89.9718217, 34.6268378], [-89.9718275, 34.6275285], [-89.9718071, 34.6275637], [-89.9717568, 34.627576], [-89.9710881, 34.6275729], [-89.9710285, 34.627553], [-89.9710118, 34.6275177], [-89.9710262, 34.6268418], [-89.9710303, 34.6266494]]}}, {"type": "Feature", "properties": {"layer": "road", "cls": "service", "name": "", "osm_id": 750384968, "w": 6}, "geometry": {"type": "LineString", "coordinates": [[-89.9718217, 34.6268378], [-89.9710262, 34.6268418]]}}, {"type": "Feature", "properties": {"layer": "road", "cls": "service", "name": "", "osm_id": 750384969, "w": 6}, "geometry": {"type": "LineString", "coordinates": [[-89.972089, 34.6266313], [-89.972088, 34.6266767], [-89.9720783, 34.6271167], [-89.9720255, 34.6272015], [-89.9720071, 34.6272558], [-89.9719786, 34.6278684]]}}, {"type": "Feature", "properties": {"layer": "road", "cls": "service", "name": "", "osm_id": 765584270, "w": 6}, "geometry": {"type": "LineString", "coordinates": [[-89.970773, 34.6266539], [-89.9710008, 34.6261234], [-89.971067, 34.6261371], [-89.9711077, 34.6261341], [-89.9711457, 34.62612], [-89.9712299, 34.6260322], [-89.9718757, 34.6253945], [-89.9718996, 34.6253436], [-89.9718683, 34.6252955], [-89.9715204, 34.6250587], [-89.9719105, 34.6247903]]}}, {"type": "Feature", "properties": {"layer": "road", "cls": "service", "name": "", "osm_id": 765584271, "w": 6}, "geometry": {"type": "LineString", "coordinates": [[-89.9715204, 34.6250587], [-89.9714132, 34.6250078], [-89.9713499, 34.6250012], [-89.971291, 34.6250127], [-89.9712319, 34.6250486], [-89.9706746, 34.62566], [-89.9705367, 34.6258027], [-89.9710008, 34.6261234]]}}, {"type": "Feature", "properties": {"layer": "road", "cls": "service", "name": "", "osm_id": 765584272, "w": 6}, "geometry": {"type": "LineString", "coordinates": [[-89.9712299, 34.6260322], [-89.9706746, 34.62566]]}}, {"type": "Feature", "properties": {"layer": "road", "cls": "service", "name": "", "osm_id": 765584273, "w": 6}, "geometry": {"type": "LineString", "coordinates": [[-89.9705367, 34.6258027], [-89.9703587, 34.625955], [-89.97026, 34.6260932], [-89.970229, 34.6261351], [-89.9701429, 34.6261956]]}}, {"type": "Feature", "properties": {"layer": "road", "cls": "service", "name": "", "osm_id": 774951874, "w": 6}, "geometry": {"type": "MultiLineString", "coordinates": [[[-89.9735837, 34.6243681], [-89.9732221, 34.6243889]], [[-89.9732221, 34.6243889], [-89.9731858, 34.6244955], [-89.9726133, 34.62454], [-89.9725841, 34.6241733], [-89.9731999, 34.6241441], [-89.9732221, 34.6243889]]]}}, {"type": "Feature", "properties": {"layer": "road", "cls": "aisle", "name": "", "osm_id": 800656699, "w": 7}, "geometry": {"type": "LineString", "coordinates": [[-89.9767223, 34.6264201], [-89.9767332, 34.6266437], [-89.9766808, 34.626765], [-89.9765884, 34.6268512], [-89.9764161, 34.626917], [-89.9762713, 34.6269047], [-89.976139, 34.6268389], [-89.9760616, 34.6267752], [-89.9760092, 34.6266355], [-89.9759913, 34.6264515]]}}, {"type": "Feature", "properties": {"layer": "road", "cls": "service", "name": "", "osm_id": 907614613, "w": 6}, "geometry": {"type": "LineString", "coordinates": [[-89.9693045, 34.6266659], [-89.9693109, 34.6270026], [-89.9692789, 34.6270975], [-89.9691978, 34.6271344], [-89.9690269, 34.6271344], [-89.9689351, 34.6270765], [-89.968925, 34.6269606], [-89.9689223, 34.6266649]]}}, {"type": "Feature", "properties": {"layer": "road", "cls": "aisle", "name": "", "osm_id": 907614614, "w": 7}, "geometry": {"type": "LineString", "coordinates": [[-89.9735886, 34.6268978], [-89.9729388, 34.626959], [-89.9729417, 34.6270272], [-89.9729731, 34.627389], [-89.9729388, 34.6274431], [-89.9726018, 34.6274689]]}}, {"type": "Feature", "properties": {"layer": "road", "cls": "service", "name": "", "osm_id": 907614615, "w": 6}, "geometry": {"type": "LineString", "coordinates": [[-89.9735912, 34.6254356], [-89.973315, 34.6254547], [-89.9732452, 34.6255587], [-89.9732119, 34.6256436], [-89.9732251, 34.6260721]]}}, {"type": "Feature", "properties": {"layer": "road", "cls": "service", "name": "", "osm_id": 907614616, "w": 6}, "geometry": {"type": "LineString", "coordinates": [[-89.973315, 34.6254547], [-89.9732186, 34.6253534], [-89.9732086, 34.6250385], [-89.973122, 34.6250397]]}}, {"type": "Feature", "properties": {"layer": "road", "cls": "service", "name": "", "osm_id": 907614617, "w": 6}, "geometry": {"type": "LineString", "coordinates": [[-89.973122, 34.6250397], [-89.9720866, 34.6250331], [-89.9720152, 34.6250551]]}}, {"type": "Feature", "properties": {"layer": "road", "cls": "aisle", "name": "", "osm_id": 907614618, "w": 7}, "geometry": {"type": "LineString", "coordinates": [[-89.9773528, 34.6263931], [-89.9773588, 34.6262343], [-89.9770991, 34.6262354], [-89.9768746, 34.6262382], [-89.9766222, 34.6262406], [-89.9763691, 34.626243], [-89.9761311, 34.6262452], [-89.9759093, 34.6262479], [-89.9756619, 34.6262508], [-89.9756704, 34.6253904], [-89.9745981, 34.6253752], [-89.9743916, 34.6253723], [-89.9741545, 34.6253694], [-89.9738798, 34.6253661], [-89.973707, 34.625364], [-89.973588, 34.6253692]]}}, {"type": "Feature", "properties": {"layer": "road", "cls": "aisle", "name": "", "osm_id": 907614619, "w": 7}, "geometry": {"type": "LineString", "coordinates": [[-89.9744332, 34.6265183], [-89.9744117, 34.6264243], [-89.9744009, 34.6262875], [-89.9743711, 34.625912], [-89.9743916, 34.6253723]]}}, {"type": "Feature", "properties": {"layer": "road", "cls": "service", "name": "", "osm_id": 907614620, "w": 6}, "geometry": {"type": "LineString", "coordinates": [[-89.9756586, 34.6264658], [-89.9756532, 34.6263811], [-89.9756619, 34.6262508]]}}, {"type": "Feature", "properties": {"layer": "road", "cls": "service", "name": "", "osm_id": 907614621, "w": 6}, "geometry": {"type": "LineString", "coordinates": [[-89.976144, 34.6264449], [-89.9761363, 34.6263643], [-89.9761311, 34.6262452]]}}, {"type": "Feature", "properties": {"layer": "road", "cls": "service", "name": "", "osm_id": 907614622, "w": 6}, "geometry": {"type": "LineString", "coordinates": [[-89.9768698, 34.6264138], [-89.9768673, 34.6263388], [-89.9768746, 34.6262382]]}}, {"type": "Feature", "properties": {"layer": "road", "cls": "service", "name": "", "osm_id": 907696281, "w": 6}, "geometry": {"type": "LineString", "coordinates": [[-89.9769734, 34.6221227], [-89.976984, 34.6215495], [-89.976892, 34.6214933], [-89.9766083, 34.6215106], [-89.9765873, 34.6216468], [-89.9765797, 34.6219672], [-89.9765767, 34.6221182]]}}, {"type": "Feature", "properties": {"layer": "road", "cls": "service", "name": "", "osm_id": 907980974, "w": 6}, "geometry": {"type": "LineString", "coordinates": [[-89.9704771, 34.6232013], [-89.9708393, 34.623191], [-89.9708502, 34.6230766], [-89.9708352, 34.6227976], [-89.970635, 34.6227684], [-89.9704728, 34.6227844]]}}, {"type": "Feature", "properties": {"layer": "road", "cls": "service", "name": "", "osm_id": 915399428, "w": 6}, "geometry": {"type": "LineString", "coordinates": [[-89.968558, 34.6230599], [-89.9689185, 34.6230472], [-89.9689504, 34.6230747], [-89.9689679, 34.623223], [-89.9689823, 34.623787], [-89.9689759, 34.6239287], [-89.968952, 34.6239602], [-89.9688819, 34.6239746], [-89.9685579, 34.6239903]]}}, {"type": "Feature", "properties": {"layer": "road", "cls": "aisle", "name": "", "osm_id": 1218254493, "w": 7}, "geometry": {"type": "LineString", "coordinates": [[-89.9774727, 34.6224079], [-89.9764228, 34.6224013], [-89.9756551, 34.6223965]]}}, {"type": "Feature", "properties": {"layer": "road", "cls": "service", "name": "", "osm_id": 1218254494, "w": 6}, "geometry": {"type": "LineString", "coordinates": [[-89.9764228, 34.6224013], [-89.9764264, 34.6221165]]}}, {"type": "Feature", "properties": {"layer": "road", "cls": "service", "name": "", "osm_id": 1218254495, "w": 6}, "geometry": {"type": "LineString", "coordinates": [[-89.9774727, 34.6224079], [-89.9774796, 34.6221284]]}}, {"type": "Feature", "properties": {"layer": "pitch", "sport": "american_football", "osm_id": 1218254496}, "geometry": {"type": "Polygon", "coordinates": [[[-89.9766482, 34.624809], [-89.9765187, 34.6238059], [-89.9770676, 34.623758], [-89.9771968, 34.6247611], [-89.9766482, 34.624809]]]}}, {"type": "Feature", "properties": {"layer": "road", "cls": "service", "name": "", "osm_id": 1218254497, "w": 6}, "geometry": {"type": "LineString", "coordinates": [[-89.9754652, 34.6221058], [-89.9754565, 34.6233762], [-89.9753669, 34.6233699], [-89.9744946, 34.6233762], [-89.9742585, 34.6234002], [-89.9741446, 34.623442], [-89.9740465, 34.6235376], [-89.97399, 34.6235968], [-89.9736294, 34.6236104], [-89.9735762, 34.6236106]]}}, {"type": "Feature", "properties": {"layer": "path", "cls": "path", "name": "", "osm_id": 1472548443, "w": 2}, "geometry": {"type": "LineString", "coordinates": [[-89.9764859, 34.625043], [-89.9764629, 34.6248608], [-89.9764382, 34.6246646], [-89.976365, 34.6240837], [-89.9762429, 34.6240878]]}}, {"type": "Feature", "properties": {"layer": "path", "cls": "path", "name": "", "osm_id": 1472548444, "w": 2}, "geometry": {"type": "LineString", "coordinates": [[-89.9762429, 34.6240878], [-89.9762252, 34.6241065], [-89.9762009, 34.6241104], [-89.9761719, 34.6241084], [-89.9761525, 34.6240846], [-89.9761447, 34.6240435], [-89.9761037, 34.6238273], [-89.976329, 34.6238085], [-89.976232, 34.6236311]]}}, {"type": "Feature", "properties": {"layer": "path", "cls": "path", "name": "", "osm_id": 1472548445, "w": 2}, "geometry": {"type": "LineString", "coordinates": [[-89.9761037, 34.6238273], [-89.9761074, 34.6237125]]}}, {"type": "Feature", "properties": {"layer": "path", "cls": "path", "name": "", "osm_id": 1472548446, "w": 2}, "geometry": {"type": "LineString", "coordinates": [[-89.9761447, 34.6240435], [-89.9760849, 34.6240502], [-89.9760505, 34.6240843], [-89.976042, 34.6241242], [-89.9760893, 34.6241861], [-89.9761049, 34.6242573], [-89.9760858, 34.6243657], [-89.9761099, 34.6244803], [-89.976114, 34.6245466], [-89.9760958, 34.6246022], [-89.9761642, 34.624675], [-89.9764382, 34.6246646]]}}, {"type": "Feature", "properties": {"layer": "path", "cls": "path", "name": "", "osm_id": 1472863845, "w": 2}, "geometry": {"type": "LineString", "coordinates": [[-89.9761642, 34.624675], [-89.9761424, 34.6247366], [-89.9761082, 34.6248215], [-89.9760571, 34.624913], [-89.9759866, 34.6249685], [-89.9759337, 34.6250351], [-89.9759263, 34.6251176], [-89.9758637, 34.6251195], [-89.9758612, 34.6252605]]}}, {"type": "Feature", "properties": {"layer": "path", "cls": "path", "name": "", "osm_id": 1472863846, "w": 2}, "geometry": {"type": "MultiLineString", "coordinates": [[[-89.9759263, 34.6251176], [-89.9760431, 34.625119], [-89.9764269, 34.6250863]], [[-89.9764269, 34.6250863], [-89.9764383, 34.6251087], [-89.9764576, 34.6251204], [-89.9764781, 34.6251262], [-89.9765085, 34.6251221], [-89.9765296, 34.6251014], [-89.9765281, 34.6250774], [-89.9765171, 34.6250574], [-89.9764859, 34.625043], [-89.9764649, 34.6250432], [-89.9764479, 34.6250485], [-89.9764353, 34.625062], [-89.9764269, 34.6250863]]]}}, {"type": "Feature", "properties": {"layer": "path", "cls": "path", "name": "", "osm_id": 1472863847, "w": 2}, "geometry": {"type": "LineString", "coordinates": [[-89.9765148, 34.6248512], [-89.976522, 34.6248605], [-89.9765387, 34.6248821], [-89.9765851, 34.624919], [-89.9766599, 34.6249632], [-89.9767257, 34.6249916], [-89.9768309, 34.6250112], [-89.9769291, 34.6250165], [-89.9770276, 34.6250067], [-89.9770905, 34.6249865], [-89.9771677, 34.6249531], [-89.9772302, 34.624914], [-89.9772576, 34.6248825], [-89.9772921, 34.6248457], [-89.9773321, 34.6247912], [-89.9773539, 34.6247701], [-89.9773951, 34.6247602], [-89.9773526, 34.6244426], [-89.9772995, 34.6240458]]}}, {"type": "Feature", "properties": {"layer": "path", "cls": "path", "name": "", "osm_id": 1472863848, "w": 2}, "geometry": {"type": "LineString", "coordinates": [[-89.9770905, 34.624998], [-89.9770941, 34.6251379]]}}, {"type": "Feature", "properties": {"layer": "path", "cls": "path", "name": "", "osm_id": 1472863849, "w": 2}, "geometry": {"type": "LineString", "coordinates": [[-89.9767257, 34.6249916], [-89.9767483, 34.6250862], [-89.9767599, 34.6251346]]}}, {"type": "Feature", "properties": {"layer": "path", "cls": "path", "name": "", "osm_id": 1472863850, "w": 2}, "geometry": {"type": "LineString", "coordinates": [[-89.9767483, 34.6250862], [-89.9765281, 34.6250774]]}}, {"type": "Feature", "properties": {"layer": "path", "cls": "path", "name": "", "osm_id": 1472863851, "w": 2}, "geometry": {"type": "LineString", "coordinates": [[-89.9772302, 34.624914], [-89.9773256, 34.6251186], [-89.9773253, 34.6251297], [-89.9773191, 34.6253313], [-89.9773153, 34.6254571], [-89.9773129, 34.6255333], [-89.9773126, 34.6255453], [-89.9773728, 34.6255893]]}}, {"type": "Feature", "properties": {"layer": "path", "cls": "path", "name": "", "osm_id": 1472863852, "w": 2}, "geometry": {"type": "LineString", "coordinates": [[-89.9773153, 34.6254571], [-89.9772168, 34.6255359], [-89.976526, 34.6255292], [-89.9764036, 34.6253994], [-89.9764366, 34.6253625], [-89.9764522, 34.625315], [-89.976444, 34.6252626], [-89.9764441, 34.6252035], [-89.9764557, 34.6251518], [-89.9764576, 34.6251204]]}}, {"type": "Feature", "properties": {"layer": "path", "cls": "path", "name": "", "osm_id": 1472863853, "w": 2}, "geometry": {"type": "LineString", "coordinates": [[-89.9772168, 34.6255359], [-89.9773129, 34.6255333]]}}, {"type": "Feature", "properties": {"layer": "path", "cls": "path", "name": "", "osm_id": 1472863854, "w": 2}, "geometry": {"type": "LineString", "coordinates": [[-89.9774841, 34.6256395], [-89.9776215, 34.6256405], [-89.9776311, 34.6253455], [-89.9776382, 34.6251263], [-89.977661, 34.6244225], [-89.9773526, 34.6244426]]}}, {"type": "Feature", "properties": {"layer": "path", "cls": "path", "name": "", "osm_id": 1472863855, "w": 2}, "geometry": {"type": "LineString", "coordinates": [[-89.9773951, 34.6247602], [-89.9774397, 34.6251261], [-89.9773253, 34.6251297]]}}, {"type": "Feature", "properties": {"layer": "path", "cls": "path", "name": "", "osm_id": 1472863856, "w": 2}, "geometry": {"type": "LineString", "coordinates": [[-89.9774397, 34.6251261], [-89.9776382, 34.6251263]]}}, {"type": "Feature", "properties": {"layer": "path", "cls": "path", "name": "", "osm_id": 1472863857, "w": 2}, "geometry": {"type": "LineString", "coordinates": [[-89.9776311, 34.6253455], [-89.9774844, 34.6253458]]}}, {"type": "Feature", "properties": {"layer": "path", "cls": "path", "name": "", "osm_id": 1472863858, "w": 2}, "geometry": {"type": "LineString", "coordinates": [[-89.9774844, 34.6253458], [-89.9774386, 34.6253382], [-89.9774092, 34.6253334], [-89.9773191, 34.6253313]]}}, {"type": "Feature", "properties": {"layer": "road", "cls": "aisle", "name": "", "osm_id": 1472863859, "w": 7}, "geometry": {"type": "LineString", "coordinates": [[-89.9754565, 34.6233762], [-89.9755753, 34.6233741], [-89.9756935, 34.6233721], [-89.9758914, 34.6234141], [-89.9760628, 34.623531], [-89.9761074, 34.6237125]]}}, {"type": "Feature", "properties": {"layer": "pitch", "sport": "tennis", "osm_id": 1472863862}, "geometry": {"type": "Polygon", "coordinates": [[[-89.9751513, 34.6230436], [-89.9752694, 34.623044], [-89.9752712, 34.6232572], [-89.9751522, 34.623257], [-89.9751513, 34.6230436]]]}}, {"type": "Feature", "properties": {"layer": "pitch", "sport": "tennis", "osm_id": 1472863863}, "geometry": {"type": "Polygon", "coordinates": [[[-89.9749718, 34.623043], [-89.9750899, 34.6230434], [-89.9750916, 34.6232567], [-89.9749726, 34.6232565], [-89.9749718, 34.623043]]]}}, {"type": "Feature", "properties": {"layer": "pitch", "sport": "tennis", "osm_id": 1472863864}, "geometry": {"type": "Polygon", "coordinates": [[[-89.9747683, 34.6230415], [-89.9748864, 34.6230419], [-89.9748881, 34.6232551], [-89.9747691, 34.6232549], [-89.9747683, 34.6230415]]]}}, {"type": "Feature", "properties": {"layer": "pitch", "sport": "tennis", "osm_id": 1472863865}, "geometry": {"type": "Polygon", "coordinates": [[[-89.9745897, 34.6230396], [-89.9747078, 34.62304], [-89.9747095, 34.6232532], [-89.9745905, 34.623253], [-89.9745897, 34.6230396]]]}}, {"type": "Feature", "properties": {"layer": "pitch", "sport": "tennis", "osm_id": 1472863866}, "geometry": {"type": "Polygon", "coordinates": [[[-89.9751521, 34.6226484], [-89.9752702, 34.6226489], [-89.9752719, 34.6228621], [-89.9751529, 34.6228619], [-89.9751521, 34.6226484]]]}}, {"type": "Feature", "properties": {"layer": "pitch", "sport": "tennis", "osm_id": 1472863867}, "geometry": {"type": "Polygon", "coordinates": [[[-89.97497, 34.6226472], [-89.9750881, 34.6226476], [-89.9750898, 34.6228608], [-89.9749708, 34.6228606], [-89.97497, 34.6226472]]]}}, {"type": "Feature", "properties": {"layer": "pitch", "sport": "tennis", "osm_id": 1472863868}, "geometry": {"type": "Polygon", "coordinates": [[[-89.9747686, 34.6226469], [-89.9748867, 34.6226473], [-89.9748884, 34.6228605], [-89.9747694, 34.6228603], [-89.9747686, 34.6226469]]]}}, {"type": "Feature", "properties": {"layer": "pitch", "sport": "tennis", "osm_id": 1472863869}, "geometry": {"type": "Polygon", "coordinates": [[[-89.97459, 34.6226487], [-89.9747081, 34.6226491], [-89.9747099, 34.6228623], [-89.9745909, 34.6228621], [-89.97459, 34.6226487]]]}}, {"type": "Feature", "properties": {"layer": "path", "cls": "path", "name": "", "osm_id": 1472863870, "w": 2}, "geometry": {"type": "LineString", "coordinates": [[-89.9753364, 34.6229496], [-89.9745261, 34.6229572]]}}, {"type": "Feature", "properties": {"layer": "path", "cls": "path", "name": "", "osm_id": 1472863872, "w": 2}, "geometry": {"type": "LineString", "coordinates": [[-89.9745243, 34.6230961], [-89.974441, 34.6230962], [-89.9743412, 34.6230964], [-89.974344, 34.6233393]]}}, {"type": "Feature", "properties": {"layer": "path", "cls": "path", "name": "", "osm_id": 1472863873, "w": 2}, "geometry": {"type": "LineString", "coordinates": [[-89.974526, 34.6228946], [-89.9744099, 34.6228947], [-89.9743491, 34.6228948], [-89.9743518, 34.6226759], [-89.9743582, 34.6221559], [-89.9744034, 34.622159], [-89.9744308, 34.6221751], [-89.9744794, 34.6222018]]}}, {"type": "Feature", "properties": {"layer": "path", "cls": "path", "name": "", "osm_id": 1472863874, "w": 2}, "geometry": {"type": "LineString", "coordinates": [[-89.9745259, 34.6226758], [-89.9743518, 34.6226759], [-89.9737018, 34.6226763], [-89.9737021, 34.6229187], [-89.973731, 34.622922], [-89.973747, 34.6229485], [-89.9737486, 34.6229953], [-89.9737501, 34.6230354], [-89.9737447, 34.6230605], [-89.9737059, 34.6230746], [-89.9737032, 34.6233904], [-89.9736377, 34.6233941], [-89.9736441, 34.6235321], [-89.9736619, 34.6235641]]}}, {"type": "Feature", "properties": {"layer": "path", "cls": "path", "name": "", "osm_id": 1472863875, "w": 2}, "geometry": {"type": "LineString", "coordinates": [[-89.9737032, 34.6233904], [-89.9737781, 34.6233911], [-89.9737788, 34.6233129]]}}, {"type": "Feature", "properties": {"layer": "path", "cls": "path", "name": "", "osm_id": 1472863876, "w": 2}, "geometry": {"type": "LineString", "coordinates": [[-89.974441, 34.6230962], [-89.9744741, 34.6230791], [-89.9745021, 34.6230572], [-89.9745252, 34.6230235]]}}, {"type": "Feature", "properties": {"layer": "path", "cls": "path", "name": "", "osm_id": 1472863877, "w": 2}, "geometry": {"type": "LineString", "coordinates": [[-89.9744099, 34.6228947], [-89.9744668, 34.6229072], [-89.9744975, 34.6229305], [-89.9745261, 34.6229572]]}}, {"type": "Feature", "properties": {"layer": "path", "cls": "path", "name": "", "osm_id": 1472863878, "w": 2}, "geometry": {"type": "LineString", "coordinates": [[-89.9736377, 34.6233941], [-89.9736293, 34.6226238], [-89.9736354, 34.6222363], [-89.9736526, 34.6221875], [-89.9736556, 34.6221722], [-89.9737117, 34.622166], [-89.9737471, 34.6221437], [-89.9741822, 34.6221508]]}}, {"type": "Feature", "properties": {"layer": "path", "cls": "path", "name": "", "osm_id": 1472863879, "w": 2}, "geometry": {"type": "LineString", "coordinates": [[-89.9743582, 34.6221559], [-89.9743064, 34.6221571]]}}, {"type": "Feature", "properties": {"layer": "path", "cls": "path", "name": "", "osm_id": 1472863880, "w": 2}, "geometry": {"type": "LineString", "coordinates": [[-89.9743064, 34.6221571], [-89.9741822, 34.6221508]]}}, {"type": "Feature", "properties": {"layer": "path", "cls": "path", "name": "", "osm_id": 1472863881, "w": 2}, "geometry": {"type": "LineString", "coordinates": [[-89.9736556, 34.6221722], [-89.973565, 34.6221758], [-89.9735313, 34.6221771]]}}, {"type": "Feature", "properties": {"layer": "path", "cls": "path", "name": "", "osm_id": 1472863882, "w": 2}, "geometry": {"type": "LineString", "coordinates": [[-89.9735313, 34.6221771], [-89.9734356, 34.6221743], [-89.9733964, 34.6221852], [-89.972036, 34.6221725]]}}, {"type": "Feature", "properties": {"layer": "path", "cls": "path", "name": "", "osm_id": 1472863883, "w": 2}, "geometry": {"type": "LineString", "coordinates": [[-89.9723551, 34.622532], [-89.9723194, 34.6225108], [-89.9722905, 34.6224807], [-89.9722761, 34.6224353], [-89.972262, 34.6223442], [-89.972088, 34.622349]]}}, {"type": "Feature", "properties": {"layer": "path", "cls": "path", "name": "", "osm_id": 1472863884, "w": 2}, "geometry": {"type": "LineString", "coordinates": [[-89.9737486, 34.6229953], [-89.9740922, 34.6229946]]}}, {"type": "Feature", "properties": {"layer": "pitch", "sport": "beachvolleyball", "osm_id": 1472863885}, "geometry": {"type": "Polygon", "coordinates": [[[-89.9742504, 34.6237741], [-89.9742531, 34.62353], [-89.9745663, 34.6235263], [-89.9745636, 34.6237728], [-89.9742504, 34.6237741]]]}}, {"type": "Feature", "properties": {"layer": "pitch", "sport": "baseball", "osm_id": 1472954919}, "geometry": {"type": "Polygon", "coordinates": [[[-89.9756209, 34.6240488], [-89.9756195, 34.6239383], [-89.9757657, 34.6239387], [-89.9757661, 34.624049], [-89.9756209, 34.6240488]]]}}, {"type": "Feature", "properties": {"layer": "path", "cls": "path", "name": "", "osm_id": 1472954920, "w": 2}, "geometry": {"type": "LineString", "coordinates": [[-89.9760071, 34.62526], [-89.9761796, 34.6252764], [-89.9762726, 34.6253097], [-89.9763329, 34.6253455], [-89.9764036, 34.6253994]]}}, {"type": "Feature", "properties": {"layer": "path", "cls": "path", "name": "", "osm_id": 1472954922, "w": 2}, "geometry": {"type": "LineString", "coordinates": [[-89.976522, 34.6248605], [-89.9764629, 34.6248608]]}}, {"type": "Feature", "properties": {"layer": "road", "cls": "aisle", "name": "", "osm_id": 1472954923, "w": 7}, "geometry": {"type": "LineString", "coordinates": [[-89.976232, 34.6236311], [-89.9760628, 34.623531]]}}, {"type": "Feature", "properties": {"layer": "path", "cls": "path", "name": "", "osm_id": 1472954924, "w": 2}, "geometry": {"type": "LineString", "coordinates": [[-89.9746458, 34.6254896], [-89.9745997, 34.6254881], [-89.9745657, 34.6254959], [-89.9745358, 34.6255225], [-89.974517, 34.6255585], [-89.9745154, 34.6255994], [-89.9745117, 34.6258804], [-89.9745097, 34.6260284], [-89.9745087, 34.6261041], [-89.9745162, 34.6261328], [-89.9745372, 34.6261529], [-89.9745741, 34.6261763], [-89.9746294, 34.6261867], [-89.9754776, 34.6261867], [-89.9755105, 34.6261865], [-89.9755423, 34.6261638], [-89.9755603, 34.6261207], [-89.9755604, 34.6258981], [-89.9755605, 34.6255665], [-89.9755387, 34.6255362], [-89.9754944, 34.6255114], [-89.9754258, 34.6255023], [-89.9750839, 34.6254967], [-89.9749731, 34.6254949], [-89.9746458, 34.6254896]]}}, {"type": "Feature", "properties": {"layer": "path", "cls": "path", "name": "", "osm_id": 1472954925, "w": 2}, "geometry": {"type": "LineString", "coordinates": [[-89.9750839, 34.6254967], [-89.975085, 34.62556]]}}, {"type": "Feature", "properties": {"layer": "path", "cls": "path", "name": "", "osm_id": 1472954926, "w": 2}, "geometry": {"type": "LineString", "coordinates": [[-89.9749731, 34.6254949], [-89.9749738, 34.6255595]]}}, {"type": "Feature", "properties": {"layer": "path", "cls": "path", "name": "", "osm_id": 1472954927, "w": 2}, "geometry": {"type": "LineString", "coordinates": [[-89.9755604, 34.6258981], [-89.9754993, 34.6258986]]}}, {"type": "Feature", "properties": {"layer": "path", "cls": "path", "name": "", "osm_id": 1472954928, "w": 2}, "geometry": {"type": "LineString", "coordinates": [[-89.9746428, 34.6260319], [-89.9745097, 34.6260284]]}}, {"type": "Feature", "properties": {"layer": "path", "cls": "path", "name": "", "osm_id": 1472954929, "w": 2}, "geometry": {"type": "LineString", "coordinates": [[-89.9745117, 34.6258804], [-89.9746438, 34.6258826]]}}, {"type": "Feature", "properties": {"layer": "path", "cls": "path", "name": "", "osm_id": 1472954930, "w": 2}, "geometry": {"type": "LineString", "coordinates": [[-89.9745997, 34.6254881], [-89.9746009, 34.6254258]]}}, {"type": "Feature", "properties": {"layer": "path", "cls": "path", "name": "", "osm_id": 1472954931, "w": 2}, "geometry": {"type": "LineString", "coordinates": [[-89.9745919, 34.6252645], [-89.9745981, 34.6253752], [-89.9746009, 34.6254258]]}}, {"type": "Feature", "properties": {"layer": "path", "cls": "path", "name": "", "osm_id": 1472954932, "w": 2}, "geometry": {"type": "LineString", "coordinates": [[-89.9745342, 34.62642], [-89.9745273, 34.6263435]]}}, {"type": "Feature", "properties": {"layer": "path", "cls": "path", "name": "", "osm_id": 1472954933, "w": 2}, "geometry": {"type": "LineString", "coordinates": [[-89.9745372, 34.6261529], [-89.9745315, 34.6262358]]}}, {"type": "Feature", "properties": {"layer": "path", "cls": "path", "name": "", "osm_id": 1472954934, "w": 2}, "geometry": {"type": "LineString", "coordinates": [[-89.9745273, 34.6263435], [-89.9745297, 34.6262838], [-89.9745315, 34.6262358]]}}, {"type": "Feature", "properties": {"layer": "road", "cls": "aisle", "name": "", "osm_id": 1472954935, "w": 7}, "geometry": {"type": "LineString", "coordinates": [[-89.9756704, 34.6253904], [-89.9757167, 34.6253601], [-89.9759375, 34.6253658], [-89.9761677, 34.6253718], [-89.9763257, 34.6254936], [-89.9763912, 34.6255782], [-89.9764336, 34.625633], [-89.9766385, 34.6256324], [-89.9768907, 34.6256317], [-89.9771114, 34.6256311], [-89.977368, 34.6256303], [-89.9774371, 34.6256301], [-89.9774386, 34.6253382], [-89.9774397, 34.6251261]]}}, {"type": "Feature", "properties": {"layer": "road", "cls": "aisle", "name": "", "osm_id": 1472954936, "w": 7}, "geometry": {"type": "LineString", "coordinates": [[-89.977368, 34.6256303], [-89.9773588, 34.6262343]]}}, {"type": "Feature", "properties": {"layer": "road", "cls": "aisle", "name": "", "osm_id": 1472954937, "w": 7}, "geometry": {"type": "LineString", "coordinates": [[-89.9770991, 34.6262354], [-89.9771114, 34.6256311]]}}, {"type": "Feature", "properties": {"layer": "road", "cls": "aisle", "name": "", "osm_id": 1472954938, "w": 7}, "geometry": {"type": "LineString", "coordinates": [[-89.9768746, 34.6262382], [-89.9768907, 34.6256317]]}}, {"type": "Feature", "properties": {"layer": "road", "cls": "aisle", "name": "", "osm_id": 1472954939, "w": 7}, "geometry": {"type": "LineString", "coordinates": [[-89.9766222, 34.6262406], [-89.9766385, 34.6256324]]}}, {"type": "Feature", "properties": {"layer": "road", "cls": "aisle", "name": "", "osm_id": 1472954940, "w": 7}, "geometry": {"type": "LineString", "coordinates": [[-89.9763691, 34.626243], [-89.9763912, 34.6255782]]}}, {"type": "Feature", "properties": {"layer": "road", "cls": "aisle", "name": "", "osm_id": 1472954941, "w": 7}, "geometry": {"type": "LineString", "coordinates": [[-89.9761311, 34.6262452], [-89.9761677, 34.6253718]]}}, {"type": "Feature", "properties": {"layer": "road", "cls": "aisle", "name": "", "osm_id": 1472954942, "w": 7}, "geometry": {"type": "LineString", "coordinates": [[-89.9759093, 34.6262479], [-89.9759375, 34.6253658]]}}, {"type": "Feature", "properties": {"layer": "road", "cls": "aisle", "name": "", "osm_id": 1472954943, "w": 7}, "geometry": {"type": "LineString", "coordinates": [[-89.9756619, 34.6262508], [-89.9745297, 34.6262838], [-89.9744009, 34.6262875]]}}, {"type": "Feature", "properties": {"layer": "road", "cls": "aisle", "name": "", "osm_id": 1472954944, "w": 7}, "geometry": {"type": "LineString", "coordinates": [[-89.9744009, 34.6262875], [-89.9741349, 34.6262907], [-89.9738904, 34.6262936], [-89.9738798, 34.6253661]]}}, {"type": "Feature", "properties": {"layer": "road", "cls": "aisle", "name": "", "osm_id": 1472954945, "w": 7}, "geometry": {"type": "LineString", "coordinates": [[-89.9741349, 34.6262907], [-89.9741545, 34.6253694]]}}, {"type": "Feature", "properties": {"layer": "path", "cls": "path", "name": "", "osm_id": 1472954946, "w": 2}, "geometry": {"type": "LineString", "coordinates": [[-89.9755107, 34.6265044], [-89.9748258, 34.6265344], [-89.9747585, 34.6265543], [-89.9746882, 34.6265562], [-89.9746476, 34.6265574], [-89.9745624, 34.6265854], [-89.9744463, 34.6265942], [-89.9744027, 34.6265947], [-89.974349, 34.6265953], [-89.9742867, 34.626596], [-89.9742611, 34.6265963], [-89.9740393, 34.6265898], [-89.9739912, 34.6265907], [-89.9738949, 34.6265925], [-89.9738507, 34.6266118], [-89.9737707, 34.626618], [-89.9737376, 34.6266639], [-89.9737219, 34.6267196], [-89.973713, 34.6267773], [-89.9737126, 34.6268383], [-89.9737211, 34.6268926], [-89.9737368, 34.6269431], [-89.973735, 34.6269977], [-89.9737375, 34.6270373], [-89.9737402, 34.6270812], [-89.9739855, 34.6270825], [-89.9739894, 34.6268211], [-89.9740068, 34.6267808], [-89.9740262, 34.6267484], [-89.9742921, 34.6267443], [-89.9743454, 34.6267433], [-89.9744071, 34.6267426], [-89.9745768, 34.62674], [-89.9746372, 34.6267493], [-89.9746887, 34.6267773], [-89.9747037, 34.6268141], [-89.9747215, 34.6269392], [-89.9747151, 34.6272475], [-89.9747233, 34.6275497], [-89.9746632, 34.627558]]}}, {"type": "Feature", "properties": {"layer": "path", "cls": "path", "name": "", "osm_id": 1472954947, "w": 2}, "geometry": {"type": "LineString", "coordinates": [[-89.974754, 34.6275988], [-89.9746316, 34.6276018], [-89.9745936, 34.6276027]]}}, {"type": "Feature", "properties": {"layer": "path", "cls": "path", "name": "", "osm_id": 1472954948, "w": 2}, "geometry": {"type": "LineString", "coordinates": [[-89.9739855, 34.6270825], [-89.9739869, 34.6271049], [-89.9739361, 34.6272222], [-89.9739414, 34.6273708]]}}, {"type": "Feature", "properties": {"layer": "path", "cls": "path", "name": "", "osm_id": 1472954949, "w": 2}, "geometry": {"type": "LineString", "coordinates": [[-89.9744027, 34.6265947], [-89.9744045, 34.626654], [-89.9744071, 34.6267426]]}}, {"type": "Feature", "properties": {"layer": "path", "cls": "path", "name": "", "osm_id": 1472954950, "w": 2}, "geometry": {"type": "LineString", "coordinates": [[-89.9742867, 34.626596], [-89.9742888, 34.6266535], [-89.9742921, 34.6267443]]}}, {"type": "Feature", "properties": {"layer": "path", "cls": "path", "name": "", "osm_id": 1472954951, "w": 2}, "geometry": {"type": "LineString", "coordinates": [[-89.9743454, 34.6267433], [-89.9743475, 34.6266538], [-89.974349, 34.6265953]]}}, {"type": "Feature", "properties": {"layer": "road", "cls": "aisle", "name": "", "osm_id": 1472954952, "w": 7}, "geometry": {"type": "LineString", "coordinates": [[-89.9746892, 34.6265073], [-89.9746882, 34.6265562], [-89.9746877, 34.6265789], [-89.9746636, 34.6266203], [-89.9746087, 34.6266549], [-89.9744045, 34.626654], [-89.9743475, 34.6266538], [-89.9742888, 34.6266535], [-89.974059, 34.6266525], [-89.9740156, 34.6266454], [-89.9739981, 34.6266246], [-89.9739912, 34.6265907], [-89.9739851, 34.6265375]]}}, {"type": "Feature", "properties": {"layer": "road", "cls": "aisle", "name": "", "osm_id": 1472954953, "w": 7}, "geometry": {"type": "LineString", "coordinates": [[-89.9740156, 34.6266454], [-89.9739659, 34.62666], [-89.9739189, 34.6266993], [-89.9738859, 34.6267453], [-89.9738861, 34.6270321], [-89.9737375, 34.6270373], [-89.9735812, 34.6270428]]}}, {"type": "Feature", "properties": {"layer": "pitch", "sport": "american_football", "osm_id": 1472954955}, "geometry": {"type": "Polygon", "coordinates": [[[-89.9758049, 34.6277519], [-89.9747886, 34.6277484], [-89.9747962, 34.6273069], [-89.9757986, 34.6273055], [-89.9758049, 34.6277519]]]}}, {"type": "Feature", "properties": {"layer": "road", "cls": "aisle", "name": "", "osm_id": 1472954956, "w": 7}, "geometry": {"type": "LineString", "coordinates": [[-89.9746255, 34.6273169], [-89.9746316, 34.6276018], [-89.9746345, 34.6277381], [-89.9746381, 34.6279115]]}}, {"type": "Feature", "properties": {"layer": "road", "cls": "aisle", "name": "", "osm_id": 1472954957, "w": 7}, "geometry": {"type": "LineString", "coordinates": [[-89.9746345, 34.6277381], [-89.9742773, 34.6277385], [-89.9741694, 34.6277387]]}}, {"type": "Feature", "properties": {"layer": "road", "cls": "aisle", "name": "", "osm_id": 1472954958, "w": 7}, "geometry": {"type": "LineString", "coordinates": [[-89.9742754, 34.6276941], [-89.9742773, 34.6277385]]}}, {"type": "Feature", "properties": {"layer": "road", "cls": "service", "name": "", "osm_id": 1472954959, "w": 6}, "geometry": {"type": "LineString", "coordinates": [[-89.9739872, 34.6278948], [-89.9738289, 34.6278159], [-89.9737288, 34.6277316], [-89.9736349, 34.6275921], [-89.973597, 34.6274406], [-89.9735586, 34.6272952]]}}, {"type": "Feature", "properties": {"layer": "road", "cls": "service", "name": "", "osm_id": 1472954960, "w": 6}, "geometry": {"type": "LineString", "coordinates": [[-89.9735586, 34.6272952], [-89.9735065, 34.627433], [-89.9734522, 34.6275874], [-89.9733716, 34.6276989], [-89.9732506, 34.6277809], [-89.9731219, 34.6278343], [-89.9729585, 34.6278826]]}}, {"type": "Feature", "properties": {"layer": "road", "cls": "aisle", "name": "", "osm_id": 1472954961, "w": 7}, "geometry": {"type": "LineString", "coordinates": [[-89.9729388, 34.626959], [-89.9729177, 34.6267175]]}}, {"type": "Feature", "properties": {"layer": "path", "cls": "path", "name": "", "osm_id": 1472954962, "w": 2}, "geometry": {"type": "LineString", "coordinates": [[-89.9729842, 34.6266524], [-89.9728124, 34.6266571], [-89.9724763, 34.6266662], [-89.972088, 34.6266767], [-89.9718809, 34.6266823]]}}, {"type": "Feature", "properties": {"layer": "path", "cls": "path", "name": "", "osm_id": 1472954963, "w": 2}, "geometry": {"type": "MultiLineString", "coordinates": [[[-89.9728124, 34.6266571], [-89.972825, 34.6268971], [-89.9728499, 34.6273675]], [[-89.9728499, 34.6273675], [-89.9728526, 34.6274201], [-89.9729008, 34.6274146], [-89.9729273, 34.6273983], [-89.9729249, 34.6273657], [-89.9728499, 34.6273675]]]}}, {"type": "Feature", "properties": {"layer": "path", "cls": "path", "name": "", "osm_id": 1472954964, "w": 2}, "geometry": {"type": "LineString", "coordinates": [[-89.972825, 34.6268971], [-89.9724763, 34.6266662]]}}, {"type": "Feature", "properties": {"layer": "path", "cls": "path", "name": "", "osm_id": 1472954965, "w": 2}, "geometry": {"type": "LineString", "coordinates": [[-89.9735022, 34.6264584], [-89.9730036, 34.6265032], [-89.9730015, 34.626159], [-89.9733341, 34.6261701]]}}, {"type": "Feature", "properties": {"layer": "path", "cls": "path", "name": "", "osm_id": 1472954966, "w": 2}, "geometry": {"type": "LineString", "coordinates": [[-89.9737279, 34.6264481], [-89.973605, 34.6264537], [-89.9735022, 34.6264584]]}}, {"type": "Feature", "properties": {"layer": "path", "cls": "path", "name": "", "osm_id": 1472954967, "w": 2}, "geometry": {"type": "LineString", "coordinates": [[-89.9737682, 34.6264467], [-89.9737696, 34.6265467], [-89.9737707, 34.626618]]}}, {"type": "Feature", "properties": {"layer": "path", "cls": "path", "name": "", "osm_id": 1472954968, "w": 2}, "geometry": {"type": "LineString", "coordinates": [[-89.9730036, 34.6265032], [-89.9722919, 34.6265317], [-89.9722929, 34.626394], [-89.9722946, 34.626145], [-89.9730015, 34.626159]]}}, {"type": "Feature", "properties": {"layer": "path", "cls": "path", "name": "", "osm_id": 1472954969, "w": 2}, "geometry": {"type": "LineString", "coordinates": [[-89.9722946, 34.626145], [-89.9720861, 34.6261379], [-89.9720843, 34.6261775], [-89.9722929, 34.626394]]}}, {"type": "Feature", "properties": {"layer": "path", "cls": "path", "name": "", "osm_id": 1472954970, "w": 2}, "geometry": {"type": "LineString", "coordinates": [[-89.9745582, 34.624183], [-89.974578, 34.6241161], [-89.9746391, 34.6240589], [-89.974709, 34.6240395], [-89.9751034, 34.6240212]]}}, {"type": "Feature", "properties": {"layer": "path", "cls": "path", "name": "", "osm_id": 1472954972, "w": 2}, "geometry": {"type": "LineString", "coordinates": [[-89.9779802, 34.6211528], [-89.9780308, 34.6212017], [-89.9782117, 34.6212079], [-89.9782109, 34.6212294], [-89.9781813, 34.6220662]]}}, {"type": "Feature", "properties": {"layer": "path", "cls": "path", "name": "", "osm_id": 1472954974, "w": 2}, "geometry": {"type": "LineString", "coordinates": [[-89.9784556, 34.621233], [-89.9782109, 34.6212294]]}}, {"type": "Feature", "properties": {"layer": "pitch", "sport": "soccer", "osm_id": 1472954975}, "geometry": {"type": "Polygon", "coordinates": [[[-89.9787903, 34.6211305], [-89.9780455, 34.6211061], [-89.9780792, 34.6201358], [-89.9788145, 34.6201543], [-89.9787903, 34.6211305]]]}}, {"type": "Feature", "properties": {"layer": "road", "cls": "aisle", "name": "", "osm_id": 1473251762, "w": 7}, "geometry": {"type": "LineString", "coordinates": [[-89.9755753, 34.6233741], [-89.9758715, 34.6231561], [-89.9775159, 34.6231832]]}}, {"type": "Feature", "properties": {"layer": "road", "cls": "service", "name": "", "src": "traced-2026-10-08", "trace_id": "panola-entry", "w": 6}, "geometry": {"type": "LineString", "coordinates": [[-89.974307, 34.6220967], [-89.9742907, 34.6221867], [-89.9742531, 34.6222706]]}}, {"type": "Feature", "properties": {"layer": "road", "cls": "service", "name": "", "src": "traced-2026-10-08", "trace_id": "panola-south", "w": 6}, "geometry": {"type": "LineString", "coordinates": [[-89.9742531, 34.6222706], [-89.9739903, 34.6222706], [-89.973824, 34.6222706]]}}, {"type": "Feature", "properties": {"layer": "road", "cls": "service", "name": "", "src": "traced-2026-10-08", "trace_id": "panola-stem", "w": 6}, "geometry": {"type": "LineString", "coordinates": [[-89.9739903, 34.6222706], [-89.9739903, 34.6225796]]}}, {"type": "Feature", "properties": {"layer": "road", "cls": "service", "name": "", "src": "traced-2026-10-08", "trace_id": "panola-north", "w": 6}, "geometry": {"type": "LineString", "coordinates": [[-89.974237, 34.6225796], [-89.9739903, 34.6225796], [-89.9737864, 34.6225796]]}}, {"type": "Feature", "properties": {"layer": "road", "cls": "service", "name": "", "src": "traced-2026-10-08", "trace_id": "panola-east", "w": 6}, "geometry": {"type": "LineString", "coordinates": [[-89.973824, 34.6222706], [-89.973824, 34.6224339], [-89.9737864, 34.622456], [-89.9735662, 34.6224559]]}}, {"type": "Feature", "properties": {"layer": "road", "cls": "service", "name": "", "src": "traced-2026-10-08", "trace_id": "panola-west", "w": 6}, "geometry": {"type": "LineString", "coordinates": [[-89.9742531, 34.6222706], [-89.9742531, 34.6223942]]}}, {"type": "Feature", "properties": {"layer": "road", "cls": "service", "name": "", "src": "traced-2026-10-08", "trace_id": "marshall-u", "w": 6}, "geometry": {"type": "LineString", "coordinates": [[-89.9754173, 34.6221053], [-89.9754172, 34.621551], [-89.9746876, 34.621551], [-89.9746878, 34.6220997]]}}, {"type": "Feature", "properties": {"layer": "road", "cls": "service", "name": "", "src": "traced-2026-10-08", "trace_id": "marshall-west", "w": 6}, "geometry": {"type": "LineString", "coordinates": [[-89.9758893, 34.6221105], [-89.9758893, 34.6220101], [-89.9758893, 34.6213833]]}}, {"type": "Feature", "properties": {"layer": "road", "cls": "service", "name": "", "src": "traced-2026-10-08", "trace_id": "marshall-west-n", "w": 6}, "geometry": {"type": "LineString", "coordinates": [[-89.976077, 34.6219439], [-89.9758893, 34.6219439]]}}, {"type": "Feature", "properties": {"layer": "road", "cls": "service", "name": "", "src": "traced-2026-10-08", "trace_id": "marshall-west-s", "w": 6}, "geometry": {"type": "LineString", "coordinates": [[-89.976077, 34.6215334], [-89.976077, 34.6213833], [-89.9758893, 34.6213833]]}}, {"type": "Feature", "properties": {"layer": "road", "cls": "service", "name": "", "src": "traced-2026-10-08", "trace_id": "marshall-east", "w": 6}, "geometry": {"type": "LineString", "coordinates": [[-89.974275, 34.6220964], [-89.974275, 34.6219442], [-89.974275, 34.6214939]]}}, {"type": "Feature", "properties": {"layer": "road", "cls": "service", "name": "", "src": "traced-2026-10-08", "trace_id": "pplant-north", "w": 6}, "geometry": {"type": "LineString", "coordinates": [[-89.9778905, 34.6261568], [-89.9778956, 34.6257915]]}}, {"type": "Feature", "properties": {"layer": "road", "cls": "service", "name": "", "src": "traced-2026-10-08", "trace_id": "pplant-mid", "w": 6}, "geometry": {"type": "LineString", "coordinates": [[-89.9781262, 34.6253964], [-89.977721, 34.6253969]]}}, {"type": "Feature", "properties": {"layer": "road", "cls": "service", "name": "", "src": "traced-2026-10-08", "trace_id": "pplant-south", "w": 6}, "geometry": {"type": "LineString", "coordinates": [[-89.9785017, 34.6251316], [-89.9777304, 34.6251324]]}}, {"type": "Feature", "properties": {"layer": "parking", "sport": "", "osm_id": 1548007422}, "geometry": {"type": "Polygon", "coordinates": [[[-89.9781689, 34.6219398], [-89.977988, 34.6219364], [-89.9780076, 34.6212249], [-89.9781886, 34.6212283], [-89.9781689, 34.6219398]]]}}, {"type": "Feature", "properties": {"layer": "parking", "sport": "", "osm_id": 1548007423}, "geometry": {"type": "Polygon", "coordinates": [[[-89.9757052, 34.6224948], [-89.9757058, 34.6223124], [-89.9775261, 34.6223166], [-89.9775255, 34.6224993], [-89.9757052, 34.6224948]]]}}, {"type": "Feature", "properties": {"layer": "parking", "sport": "", "osm_id": 1548007424}, "geometry": {"type": "Polygon", "coordinates": [[[-89.9737004, 34.6226626], [-89.9737008, 34.6222191], [-89.9737487, 34.6221738], [-89.9743419, 34.6221742], [-89.9743414, 34.622663], [-89.9737004, 34.6226626]]]}}, {"type": "Feature", "properties": {"layer": "parking", "sport": "", "osm_id": 1548007432}, "geometry": {"type": "Polygon", "coordinates": [[[-89.9705263, 34.6227047], [-89.970932, 34.6226987], [-89.9709445, 34.6232666], [-89.9705387, 34.6232727], [-89.9705263, 34.6227047]]]}}, {"type": "Feature", "properties": {"layer": "parking", "sport": "", "osm_id": 1548007433}, "geometry": {"type": "Polygon", "coordinates": [[[-89.9710694, 34.6231736], [-89.9710643, 34.6230402], [-89.9717227, 34.623023], [-89.9717278, 34.6231566], [-89.9710694, 34.6231736]]]}}, {"type": "Feature", "properties": {"layer": "parking", "sport": "", "osm_id": 1548007438}, "geometry": {"type": "Polygon", "coordinates": [[[-89.9724517, 34.622871], [-89.9724469, 34.6225833], [-89.9732653, 34.6225741], [-89.9732701, 34.6228617], [-89.9724517, 34.622871]]]}}, {"type": "Feature", "properties": {"layer": "parking", "sport": "", "osm_id": 1548007439}, "geometry": {"type": "Polygon", "coordinates": [[[-89.9755971, 34.6263568], [-89.9755895, 34.6254654], [-89.9761295, 34.6254805], [-89.976457, 34.6257311], [-89.9775203, 34.6257424], [-89.9775096, 34.6262787], [-89.9755971, 34.6263568]]]}}, {"type": "Feature", "properties": {"layer": "parking", "sport": "", "osm_id": 1548007440}, "geometry": {"type": "Polygon", "coordinates": [[[-89.9738071, 34.6264197], [-89.9737857, 34.6253433], [-89.9744818, 34.6253446], [-89.9744894, 34.626392], [-89.9738071, 34.6264197]]]}}, {"type": "Feature", "properties": {"layer": "parking", "sport": "", "osm_id": 1548007441}, "geometry": {"type": "Polygon", "coordinates": [[[-89.9746574, 34.6254743], [-89.9746594, 34.6252786], [-89.9755337, 34.6252845], [-89.9755317, 34.6254803], [-89.9746574, 34.6254743]]]}}, {"type": "Feature", "properties": {"layer": "parking", "sport": "", "osm_id": 1548007442}, "geometry": {"type": "Polygon", "coordinates": [[[-89.973145, 34.6259626], [-89.9731442, 34.6256885], [-89.9733392, 34.6256881], [-89.9733401, 34.6259622], [-89.973145, 34.6259626]]]}}, {"type": "Feature", "properties": {"layer": "parking", "sport": "", "osm_id": 1548007443}, "geometry": {"type": "Polygon", "coordinates": [[[-89.9746263, 34.6263738], [-89.9746242, 34.62622], [-89.9755177, 34.6262116], [-89.9755199, 34.6263652], [-89.9746263, 34.6263738]]]}}, {"type": "Feature", "properties": {"layer": "parking", "sport": "", "osm_id": 1549095742}, "geometry": {"type": "Polygon", "coordinates": [[[-89.9778836, 34.6236676], [-89.9778791, 34.6235612], [-89.9780023, 34.62356], [-89.9779993, 34.6233263], [-89.9785928, 34.6233263], [-89.9785808, 34.6236663], [-89.9778836, 34.6236676]]]}}, {"type": "Feature", "properties": {"layer": "parking", "sport": "", "osm_id": 1549095749}, "geometry": {"type": "Polygon", "coordinates": [[[-89.9736963, 34.6239227], [-89.9736919, 34.6236849], [-89.9740952, 34.6236799], [-89.9740995, 34.6239177], [-89.9736963, 34.6239227]]]}}, {"type": "Feature", "properties": {"layer": "parking", "sport": "", "osm_id": 1549095751}, "geometry": {"type": "Polygon", "coordinates": [[[-89.9734803, 34.6239951], [-89.9733452, 34.6239964], [-89.9733481, 34.6242039], [-89.9726209, 34.6242109], [-89.9726153, 34.6238204], [-89.9734777, 34.623812], [-89.9734803, 34.6239951]]]}}, {"type": "Feature", "properties": {"layer": "parking", "sport": "", "osm_id": 1549095752}, "geometry": {"type": "Polygon", "coordinates": [[[-89.9733555, 34.6245897], [-89.9725386, 34.6246072], [-89.9725269, 34.6242371], [-89.9733438, 34.6242197], [-89.9733555, 34.6245897]]]}}, {"type": "Feature", "properties": {"layer": "parking", "sport": "", "osm_id": 1549387901}, "geometry": {"type": "Polygon", "coordinates": [[[-89.9694038, 34.6271329], [-89.9693766, 34.6271328], [-89.9693762, 34.6271994], [-89.9688314, 34.6271971], [-89.9688341, 34.6267519], [-89.969406, 34.6267541], [-89.9694038, 34.6271329]]]}}, {"type": "Feature", "properties": {"layer": "parking", "sport": "", "osm_id": 1549387919}, "geometry": {"type": "Polygon", "coordinates": [[[-89.9695608, 34.6240542], [-89.9695608, 34.6238739], [-89.9703251, 34.6238739], [-89.9703251, 34.6240541], [-89.9695608, 34.6240542]]]}}, {"type": "Feature", "properties": {"layer": "parking", "sport": "", "osm_id": 1549387920}, "geometry": {"type": "Polygon", "coordinates": [[[-89.9708306, 34.6243918], [-89.9707943, 34.6244898], [-89.9707307, 34.6244739], [-89.9706624, 34.624658], [-89.9705398, 34.6246226], [-89.9706063, 34.6244111], [-89.9705961, 34.6240447], [-89.9708209, 34.6240405], [-89.9708306, 34.6243918]]]}}, {"type": "Feature", "properties": {"layer": "parking", "sport": "", "osm_id": 1549387929}, "geometry": {"type": "Polygon", "coordinates": [[[-89.9719461, 34.6267689], [-89.9719441, 34.6275836], [-89.9718663, 34.6275835], [-89.9718661, 34.6276541], [-89.9709519, 34.6276527], [-89.970954, 34.6267673], [-89.9719461, 34.6267689]]]}}, {"type": "Feature", "properties": {"layer": "parking", "sport": "", "osm_id": 1549387930}, "geometry": {"type": "Polygon", "coordinates": [[[-89.974841, 34.626831], [-89.9748378, 34.6266637], [-89.9754643, 34.6266556], [-89.9754675, 34.626823], [-89.974841, 34.626831]]]}}, {"type": "Feature", "properties": {"layer": "connector-label", "cls": "hwy51", "name": "HWY 51"}, "geometry": {"type": "Point", "coordinates": [-89.9685557, 34.6212001]}}, {"type": "Feature", "properties": {"layer": "connector-label", "cls": "hwy51", "name": "HWY 51"}, "geometry": {"type": "Point", "coordinates": [-89.9685653, 34.6262004]}}, {"type": "Feature", "properties": {"layer": "connector-label", "cls": "wilson", "name": "Wilson Dr"}, "geometry": {"type": "Point", "coordinates": [-89.9768035, 34.6279663]}}, {"type": "Feature", "properties": {"layer": "mask"}, "geometry": {"type": "MultiPolygon", "coordinates": [[[[-90.046739, 34.5650077], [-90.046739, 34.6821623], [-89.903108, 34.6821623], [-89.903108, 34.5650077], [-90.046739, 34.5650077]], [[-89.980023, 34.619471], [-89.980023, 34.6279896], [-89.9787689, 34.6279593], [-89.9767121, 34.6279222], [-89.9746381, 34.627869], [-89.9739872, 34.6278523], [-89.9735038, 34.6278399], [-89.9731257, 34.62784], [-89.9729585, 34.6278401], [-89.9726015, 34.6278402], [-89.9719786, 34.6278259], [-89.9712011, 34.6278075], [-89.9708228, 34.6277985], [-89.9703708, 34.6277878], [-89.9700528, 34.6277803], [-89.9698253, 34.6277749], [-89.9696518, 34.6277708], [-89.969611, 34.6277698], [-89.9693887, 34.6277645], [-89.9692783, 34.6277619], [-89.9686255, 34.6277464], [-89.9686271, 34.6274108], [-89.968628, 34.6272092], [-89.9686306, 34.6266639], [-89.9686069, 34.6253684], [-89.9686076, 34.6252979], [-89.9686118, 34.625103], [-89.9686147, 34.6246406], [-89.9686147, 34.6239903], [-89.9686148, 34.6230599], [-89.9686148, 34.6229116], [-89.9686148, 34.6221589], [-89.968613, 34.6214179], [-89.9686099, 34.6201377], [-89.9686156, 34.6195293], [-89.9686158, 34.619471], [-89.980023, 34.619471]]], [[[-89.9707458, 34.6277125], [-89.9703751, 34.6277037], [-89.9700572, 34.6276962], [-89.9698297, 34.6276908], [-89.9696562, 34.6276867], [-89.9696154, 34.6276857], [-89.969393, 34.6276804], [-89.9692827, 34.6276778], [-89.9687219, 34.6276646], [-89.9687231, 34.6274113], [-89.9687233, 34.627374], [-89.9696409, 34.6273797], [-89.9696439, 34.6269125], [-89.9701561, 34.6269056], [-89.9707633, 34.6268884], [-89.9707458, 34.6277125]]]]}}, {"type": "Feature", "properties": {"layer": "road", "cls": "minor", "name": "", "w": 6, "src": "aerial-trace 2026-10-08", "trace_id": "roundabout"}, "geometry": {"type": "LineString", "coordinates": [[-89.9702522, 34.6220944], [-89.9702536, 34.6221113], [-89.9702576, 34.6221278], [-89.9702641, 34.6221439], [-89.9702732, 34.622159], [-89.9702845, 34.6221731], [-89.970298, 34.6221858], [-89.9703133, 34.622197], [-89.9703303, 34.6222064], [-89.9703486, 34.6222139], [-89.9703679, 34.6222193], [-89.970388, 34.6222226], [-89.9704084, 34.6222237], [-89.9704287, 34.6222226], [-89.9704488, 34.6222193], [-89.9704681, 34.6222139], [-89.9704864, 34.6222064], [-89.9705034, 34.622197], [-89.9705187, 34.6221858], [-89.9705322, 34.6221731], [-89.9705435, 34.622159], [-89.9705526, 34.6221439], [-89.9705591, 34.6221278], [-89.9705631, 34.6221113], [-89.9705645, 34.6220944], [-89.9705631, 34.6220775], [-89.9705591, 34.6220609], [-89.9705526, 34.6220449], [-89.9705435, 34.6220297], [-89.9705322, 34.6220156], [-89.9705187, 34.6220029], [-89.9705034, 34.6219918], [-89.9704864, 34.6219824], [-89.9704681, 34.6219749], [-89.9704488, 34.6219695], [-89.9704287, 34.6219662], [-89.9704084, 34.621965], [-89.970388, 34.6219662], [-89.9703679, 34.6219695], [-89.9703486, 34.6219749], [-89.9703303, 34.6219824], [-89.9703133, 34.6219918], [-89.970298, 34.6220029], [-89.9702845, 34.6220156], [-89.9702732, 34.6220297], [-89.9702641, 34.6220449], [-89.9702576, 34.6220609], [-89.9702536, 34.6220775], [-89.9702522, 34.6220944]]}}, {"type": "Feature", "properties": {"layer": "apron", "src": "aerial-trace 2026-10-08"}, "geometry": {"type": "Polygon", "coordinates": [[[-89.9702839, 34.6220944], [-89.9702854, 34.6221105], [-89.97029, 34.6221262], [-89.9702975, 34.6221412], [-89.9703077, 34.622155], [-89.9703204, 34.6221673], [-89.9703352, 34.6221778], [-89.9703519, 34.6221862], [-89.9703699, 34.6221924], [-89.9703889, 34.6221962], [-89.9704084, 34.6221975], [-89.9704278, 34.6221962], [-89.9704468, 34.6221924], [-89.9704648, 34.6221862], [-89.9704815, 34.6221778], [-89.9704963, 34.6221673], [-89.970509, 34.622155], [-89.9705192, 34.6221412], [-89.9705267, 34.6221262], [-89.9705313, 34.6221105], [-89.9705328, 34.6220944], [-89.9705313, 34.6220782], [-89.9705267, 34.6220625], [-89.9705192, 34.6220476], [-89.970509, 34.6220338], [-89.9704963, 34.6220215], [-89.9704815, 34.622011], [-89.9704648, 34.6220025], [-89.9704468, 34.6219963], [-89.9704278, 34.6219925], [-89.9704084, 34.6219913], [-89.9703889, 34.6219925], [-89.9703699, 34.6219963], [-89.9703519, 34.6220025], [-89.9703352, 34.622011], [-89.9703204, 34.6220215], [-89.9703077, 34.6220338], [-89.9702975, 34.6220476], [-89.97029, 34.6220625], [-89.9702854, 34.6220782], [-89.9702839, 34.6220944]], [[-89.9703046, 34.6220944], [-89.9703059, 34.6220809], [-89.9703097, 34.6220678], [-89.9703159, 34.6220554], [-89.9703245, 34.6220439], [-89.970335, 34.6220336], [-89.9703474, 34.6220249], [-89.9703613, 34.6220178], [-89.9703763, 34.6220127], [-89.9703921, 34.6220095], [-89.9704084, 34.6220085], [-89.9704246, 34.6220095], [-89.9704404, 34.6220127], [-89.9704554, 34.6220178], [-89.9704693, 34.6220249], [-89.9704817, 34.6220336], [-89.9704923, 34.6220439], [-89.9705008, 34.6220554], [-89.970507, 34.6220678], [-89.9705108, 34.6220809], [-89.9705121, 34.6220944], [-89.9705108, 34.6221078], [-89.970507, 34.6221209], [-89.9705008, 34.6221334], [-89.9704923, 34.6221449], [-89.9704817, 34.6221551], [-89.9704693, 34.6221639], [-89.9704554, 34.6221709], [-89.9704404, 34.6221761], [-89.9704246, 34.6221792], [-89.9704084, 34.6221803], [-89.9703921, 34.6221792], [-89.9703763, 34.6221761], [-89.9703613, 34.6221709], [-89.9703474, 34.6221639], [-89.970335, 34.6221551], [-89.9703245, 34.6221449], [-89.9703159, 34.6221334], [-89.9703097, 34.6221209], [-89.9703059, 34.6221078], [-89.9703046, 34.6220944]]]}}, {"type": "Feature", "properties": {"layer": "island", "src": "aerial-trace 2026-10-08"}, "geometry": {"type": "Polygon", "coordinates": [[[-89.9703046, 34.6220944], [-89.9703059, 34.6221078], [-89.9703097, 34.6221209], [-89.9703159, 34.6221334], [-89.9703245, 34.6221449], [-89.970335, 34.6221551], [-89.9703474, 34.6221639], [-89.9703613, 34.6221709], [-89.9703763, 34.6221761], [-89.9703921, 34.6221792], [-89.9704084, 34.6221803], [-89.9704246, 34.6221792], [-89.9704404, 34.6221761], [-89.9704554, 34.6221709], [-89.9704693, 34.6221639], [-89.9704817, 34.6221551], [-89.9704923, 34.6221449], [-89.9705008, 34.6221334], [-89.970507, 34.6221209], [-89.9705108, 34.6221078], [-89.9705121, 34.6220944], [-89.9705108, 34.6220809], [-89.970507, 34.6220678], [-89.9705008, 34.6220554], [-89.9704923, 34.6220439], [-89.9704817, 34.6220336], [-89.9704693, 34.6220249], [-89.9704554, 34.6220178], [-89.9704404, 34.6220127], [-89.9704246, 34.6220095], [-89.9704084, 34.6220085], [-89.9703921, 34.6220095], [-89.9703763, 34.6220127], [-89.9703613, 34.6220178], [-89.9703474, 34.6220249], [-89.970335, 34.6220336], [-89.9703245, 34.6220439], [-89.9703159, 34.6220554], [-89.9703097, 34.6220678], [-89.9703059, 34.6220809], [-89.9703046, 34.6220944]]]}}, {"type": "Feature", "properties": {"layer": "island", "src": "aerial-trace 2026-10-08"}, "geometry": {"type": "Polygon", "coordinates": [[[-89.9737379, 34.6278552], [-89.9736178, 34.6278552], [-89.9736233, 34.6277331], [-89.9737379, 34.6278552]]]}}, {"type": "Feature", "properties": {"layer": "island", "src": "aerial-trace 2026-10-08"}, "geometry": {"type": "Polygon", "coordinates": [[[-89.9734813, 34.6278552], [-89.9733176, 34.6278462], [-89.9734759, 34.6277331], [-89.9734813, 34.6278552]]]}}, {"type": "Feature", "properties": {"layer": "parking", "sport": "", "src": "aerial-trace 2026-10-08"}, "geometry": {"type": "Polygon", "coordinates": [[[-89.9734322, 34.6221125], [-89.9720677, 34.6221125], [-89.9720131, 34.6221631], [-89.9734759, 34.6221631], [-89.9734322, 34.6221125]]]}}, {"type": "Feature", "properties": {"layer": "parking", "sport": "", "src": "aerial-trace 2026-10-08"}, "geometry": {"type": "Polygon", "coordinates": [[[-89.9733886, 34.6219949], [-89.9719912, 34.6219949], [-89.9719912, 34.6220492], [-89.9733886, 34.6220492], [-89.9733886, 34.6219949]]]}}, {"type": "Feature", "properties": {"layer": "parking", "sport": "", "src": "aerial-trace 2026-10-08"}, "geometry": {"type": "Polygon", "coordinates": [[[-89.9717402, 34.6239619], [-89.9708887, 34.6239619], [-89.9708887, 34.6240139], [-89.9717402, 34.6240139], [-89.9717402, 34.6239619]]]}}, {"type": "Feature", "properties": {"layer": "parking", "sport": "", "src": "aerial-trace 2026-10-08"}, "geometry": {"type": "Polygon", "coordinates": [[[-89.971762, 34.6238534], [-89.9708232, 34.6238534], [-89.9708232, 34.6239031], [-89.971762, 34.6239031], [-89.971762, 34.6238534]]]}}, {"type": "Feature", "properties": {"layer": "parking", "sport": "", "src": "aerial-trace 2026-10-08"}, "geometry": {"type": "Polygon", "coordinates": [[[-89.9719858, 34.6240659], [-89.9719312, 34.6240659], [-89.9719312, 34.624717], [-89.9719858, 34.624717], [-89.9719858, 34.6240659]]]}}, {"type": "Feature", "properties": {"layer": "parking", "sport": "", "src": "aerial-trace 2026-10-08"}, "geometry": {"type": "Polygon", "coordinates": [[[-89.9718602, 34.6242287], [-89.9717947, 34.6242287], [-89.9717947, 34.6246899], [-89.9718602, 34.6246899], [-89.9718602, 34.6242287]]]}}, {"type": "Feature", "properties": {"layer": "parking", "sport": "", "src": "aerial-trace 2026-10-08"}, "geometry": {"type": "Polygon", "coordinates": [[[-89.9719421, 34.623252], [-89.9718875, 34.623252], [-89.9718875, 34.6238127], [-89.9719421, 34.6238127], [-89.9719421, 34.623252]]]}}, {"type": "Feature", "properties": {"layer": "parking", "sport": "", "src": "aerial-trace 2026-10-08"}, "geometry": {"type": "Polygon", "coordinates": [[[-89.9718275, 34.6233695], [-89.9717675, 34.6233695], [-89.9717675, 34.6238036], [-89.9718275, 34.6238036], [-89.9718275, 34.6233695]]]}}, {"type": "Feature", "properties": {"layer": "parking", "sport": "", "src": "aerial-trace 2026-10-08"}, "geometry": {"type": "Polygon", "coordinates": [[[-89.9719203, 34.6222572], [-89.971863, 34.6222572], [-89.971863, 34.6229807], [-89.9719203, 34.6229807], [-89.9719203, 34.6222572]]]}}, {"type": "Feature", "properties": {"layer": "parking", "sport": "", "src": "aerial-trace 2026-10-08"}, "geometry": {"type": "Polygon", "coordinates": [[[-89.9732685, 34.6259832], [-89.9721113, 34.6259832], [-89.9721113, 34.6260329], [-89.9732685, 34.6260329], [-89.9732685, 34.6259832]]]}}, {"type": "Feature", "properties": {"layer": "parking", "sport": "", "src": "aerial-trace 2026-10-08"}, "geometry": {"type": "Polygon", "coordinates": [[[-89.9733012, 34.6261007], [-89.9721222, 34.6261007], [-89.9721222, 34.626146], [-89.9733012, 34.626146], [-89.9733012, 34.6261007]]]}}, {"type": "Feature", "properties": {"layer": "parking", "sport": "", "src": "aerial-trace 2026-10-08"}, "geometry": {"type": "Polygon", "coordinates": [[[-89.9729874, 34.6231118], [-89.9727581, 34.6231118], [-89.9727581, 34.6233017], [-89.9729874, 34.6233017], [-89.9729874, 34.6231118]]]}}, {"type": "Feature", "properties": {"layer": "parking", "sport": "", "src": "aerial-trace 2026-10-08"}, "geometry": {"type": "Polygon", "coordinates": [[[-89.9727418, 34.6231321], [-89.9725207, 34.6231321], [-89.9725207, 34.6233153], [-89.9727418, 34.6233153], [-89.9727418, 34.6231321]]]}}, {"type": "Feature", "properties": {"layer": "parking", "sport": "", "src": "aerial-trace 2026-10-08"}, "geometry": {"type": "Polygon", "coordinates": [[[-89.9724961, 34.6231525], [-89.9722096, 34.6231525], [-89.9722096, 34.6233153], [-89.9724961, 34.6233153], [-89.9724961, 34.6231525]]]}}, {"type": "Feature", "properties": {"layer": "parking", "sport": "", "src": "aerial-trace 2026-10-08"}, "geometry": {"type": "Polygon", "coordinates": [[[-89.9762017, 34.6215427], [-89.9761395, 34.6215427], [-89.9761395, 34.621966], [-89.9762017, 34.621966], [-89.9762017, 34.6215427]]]}}, {"type": "Feature", "properties": {"layer": "parking", "sport": "", "src": "aerial-trace 2026-10-08"}, "geometry": {"type": "Polygon", "coordinates": [[[-89.9760576, 34.6215291], [-89.9759185, 34.6215291], [-89.9759185, 34.6218683], [-89.9760576, 34.6218683], [-89.9760576, 34.6215291]]]}}, {"type": "Feature", "properties": {"layer": "parking", "sport": "", "src": "aerial-trace 2026-10-08"}, "geometry": {"type": "Polygon", "coordinates": [[[-89.9758448, 34.621597], [-89.9757711, 34.621597], [-89.9757711, 34.6219632], [-89.9758448, 34.6219632], [-89.9758448, 34.621597]]]}}, {"type": "Feature", "properties": {"layer": "parking", "sport": "", "src": "aerial-trace 2026-10-08"}, "geometry": {"type": "Polygon", "coordinates": [[[-89.9755418, 34.6215563], [-89.9754763, 34.6215563], [-89.9754763, 34.6219632], [-89.9755418, 34.6219632], [-89.9755418, 34.6215563]]]}}, {"type": "Feature", "properties": {"layer": "parking", "sport": "", "src": "aerial-trace 2026-10-08"}, "geometry": {"type": "Polygon", "coordinates": [[[-89.975419, 34.6215789], [-89.9747313, 34.6215789], [-89.9747313, 34.6216558], [-89.975419, 34.6216558], [-89.975419, 34.6215789]]]}}, {"type": "Feature", "properties": {"layer": "parking", "sport": "", "src": "aerial-trace 2026-10-08"}, "geometry": {"type": "Polygon", "coordinates": [[[-89.9747013, 34.6215291], [-89.9745752, 34.6215291], [-89.9745752, 34.6219768], [-89.9747013, 34.6219768], [-89.9747013, 34.6215291]]]}}, {"type": "Feature", "properties": {"layer": "parking", "sport": "", "src": "aerial-trace 2026-10-08"}, "geometry": {"type": "Polygon", "coordinates": [[[-89.9743874, 34.6215156], [-89.9742455, 34.6215156], [-89.9742455, 34.6219768], [-89.9743874, 34.6219768], [-89.9743874, 34.6215156]]]}}, {"type": "Feature", "properties": {"layer": "parking", "sport": "", "src": "aerial-trace 2026-10-08"}, "geometry": {"type": "Polygon", "coordinates": [[[-89.9712614, 34.6259591], [-89.9717943, 34.6254324], [-89.9717483, 34.6254005], [-89.9712154, 34.6259272], [-89.9712614, 34.6259591]]]}}, {"type": "Feature", "properties": {"layer": "parking", "sport": "", "src": "aerial-trace 2026-10-08"}, "geometry": {"type": "Polygon", "coordinates": [[[-89.9713116, 34.625994], [-89.9718445, 34.6254673], [-89.9718905, 34.6254993], [-89.9713576, 34.6260259], [-89.9713116, 34.625994]]]}}, {"type": "Feature", "properties": {"layer": "parking", "sport": "", "src": "aerial-trace 2026-10-08"}, "geometry": {"type": "Polygon", "coordinates": [[[-89.9717797, 34.6252708], [-89.9715673, 34.6251258], [-89.9715291, 34.6251642], [-89.9717415, 34.6253092], [-89.9717797, 34.6252708]]]}}, {"type": "Feature", "properties": {"layer": "parking", "sport": "", "src": "aerial-trace 2026-10-08"}, "geometry": {"type": "Polygon", "coordinates": [[[-89.9718213, 34.6252289], [-89.971609, 34.625084], [-89.9716471, 34.6250456], [-89.9718595, 34.6251905], [-89.9718213, 34.6252289]]]}}, {"type": "Feature", "properties": {"layer": "parking", "sport": "", "src": "aerial-trace 2026-10-08"}, "geometry": {"type": "Polygon", "coordinates": [[[-89.971205, 34.6251231], [-89.9707535, 34.6256189], [-89.9708014, 34.6256488], [-89.9712529, 34.625153], [-89.971205, 34.6251231]]]}}, {"type": "Feature", "properties": {"layer": "parking", "sport": "", "src": "aerial-trace 2026-10-08"}, "geometry": {"type": "Polygon", "coordinates": [[[-89.9711527, 34.6250904], [-89.9707012, 34.6255862], [-89.9706532, 34.6255563], [-89.9711048, 34.6250604], [-89.9711527, 34.6250904]]]}}, {"type": "Feature", "properties": {"layer": "parking", "sport": "", "src": "aerial-trace 2026-10-08"}, "geometry": {"type": "Polygon", "coordinates": [[[-89.9711249, 34.6259963], [-89.9707391, 34.6257382], [-89.9707014, 34.6257769], [-89.9710871, 34.626035], [-89.9711249, 34.6259963]]]}}, {"type": "Feature", "properties": {"layer": "path", "cls": "path", "name": "", "src": "aerial-trace 2026-10-08", "trace_id": "walk-1", "w": 2}, "geometry": {"type": "LineString", "coordinates": [[-89.9720131, 34.6247532], [-89.9720076, 34.6245], [-89.9720022, 34.6243191], [-89.9719967, 34.6240478], [-89.9719858, 34.6238127], [-89.9719661, 34.6235956], [-89.9719585, 34.6234148], [-89.971953, 34.6231615]]}}, {"type": "Feature", "properties": {"layer": "path", "cls": "path", "name": "", "src": "aerial-trace 2026-10-08", "trace_id": "walk-2", "w": 2}, "geometry": {"type": "LineString", "coordinates": [[-89.9717347, 34.624699], [-89.9717402, 34.6243191], [-89.9717511, 34.6240297]]}}, {"type": "Feature", "properties": {"layer": "path", "cls": "path", "name": "", "src": "aerial-trace 2026-10-08", "trace_id": "walk-3", "w": 2}, "geometry": {"type": "LineString", "coordinates": [[-89.9717511, 34.623838], [-89.9717478, 34.6235956], [-89.9717456, 34.6233424]]}}, {"type": "Feature", "properties": {"layer": "path", "cls": "path", "name": "", "src": "aerial-trace 2026-10-08", "trace_id": "walk-4", "w": 2}, "geometry": {"type": "LineString", "coordinates": [[-89.9717511, 34.6240297], [-89.9705393, 34.6240297]]}}, {"type": "Feature", "properties": {"layer": "path", "cls": "path", "name": "", "src": "aerial-trace 2026-10-08", "trace_id": "walk-5", "w": 2}, "geometry": {"type": "LineString", "coordinates": [[-89.9717511, 34.623838], [-89.9705284, 34.623838]]}}, {"type": "Feature", "properties": {"layer": "path", "cls": "path", "name": "", "src": "aerial-trace 2026-10-08", "trace_id": "walk-6", "w": 2}, "geometry": {"type": "LineString", "coordinates": [[-89.9725916, 34.6239393], [-89.9720185, 34.6239393]]}}, {"type": "Feature", "properties": {"layer": "path", "cls": "path", "name": "", "src": "aerial-trace 2026-10-08", "trace_id": "walk-7", "w": 2}, "geometry": {"type": "LineString", "coordinates": [[-89.9728264, 34.6246085], [-89.9728264, 34.6247713]]}}, {"type": "Feature", "properties": {"layer": "path", "cls": "path", "name": "", "src": "aerial-trace 2026-10-08", "trace_id": "walk-8", "w": 2}, "geometry": {"type": "LineString", "coordinates": [[-89.9730174, 34.6251756], [-89.9721768, 34.6251756]]}}, {"type": "Feature", "properties": {"layer": "path", "cls": "path", "name": "", "src": "aerial-trace 2026-10-08", "trace_id": "walk-9", "w": 2}, "geometry": {"type": "LineString", "coordinates": [[-89.973263, 34.6221803], [-89.973263, 34.6222752]]}}, {"type": "Feature", "properties": {"layer": "path", "cls": "path", "name": "", "src": "aerial-trace 2026-10-08", "trace_id": "walk-10", "w": 2}, "geometry": {"type": "LineString", "coordinates": [[-89.9729137, 34.6221803], [-89.9729137, 34.6222752]]}}, {"type": "Feature", "properties": {"layer": "path", "cls": "path", "name": "", "src": "aerial-trace 2026-10-08", "trace_id": "walk-11", "w": 2}, "geometry": {"type": "LineString", "coordinates": [[-89.9724825, 34.6221803], [-89.9724825, 34.6222752]]}}, {"type": "Feature", "properties": {"layer": "path", "cls": "path", "name": "", "src": "aerial-trace 2026-10-08", "trace_id": "walk-12", "w": 2}, "geometry": {"type": "LineString", "coordinates": [[-89.969284, 34.6239031], [-89.969284, 34.6233243]]}}, {"type": "Feature", "properties": {"layer": "path", "cls": "path", "name": "", "src": "aerial-trace 2026-10-08", "trace_id": "walk-13", "w": 2}, "geometry": {"type": "LineString", "coordinates": [[-89.9695951, 34.6240659], [-89.9695951, 34.6242287]]}}, {"type": "Feature", "properties": {"layer": "path", "cls": "path", "name": "", "src": "aerial-trace 2026-10-08", "trace_id": "walk-14", "w": 2}, "geometry": {"type": "LineString", "coordinates": [[-89.9731375, 34.6259669], [-89.9721004, 34.6259606]]}}, {"type": "Feature", "properties": {"layer": "path", "cls": "path", "name": "", "src": "aerial-trace 2026-10-08", "trace_id": "walk-15", "w": 2}, "geometry": {"type": "LineString", "coordinates": [[-89.9709706, 34.6265981], [-89.9709706, 34.6264444], [-89.9709978, 34.6262907], [-89.9710633, 34.6262183], [-89.9711725, 34.6261867], [-89.9713363, 34.6261731]]}}]}